{"type":"FeatureCollection","features":[{"type":"Feature","id":"relation/5414648","properties":{"addr:block_number":"3","addr:city":"文京区","addr:housenumber":"1","addr:neighbourhood":"本郷七丁目","addr:postcode":"113-8654","addr:province":"東京都","amenity":"university","education":"university","name":"東京大学本郷キャンパス","name:en":"University of Tokyo (Hongo Campus)","name:es":"Universidad de Tokio (Campus Hongo)","name:fr":"Campus Hongo de l'Université de Tokyo","name:ja":"東京大学本郷キャンパス","name:ja-Hira":"とうきょうだいがくほんごうキャンパス","name:ja-Latn":"Tōkyō Daigaku Hongō Kyanpasu","name:ko":"도쿄대학 혼고캠퍼스","name:zh":"東京大學本鄉校區","operator":"東京大学","type":"multipolygon","wikidata":"Q11524692","wikimedia_commons":"Category:Hongo Campus, the University of Tokyo","wikipedia":"ja:東京大学本郷地区キャンパス","id":"relation/5414648"},"geometry":{"type":"Polygon","coordinates":[[[139.7590415,35.7148701],[139.7593929,35.7135645],[139.7594472,35.7133607],[139.7595014,35.7131172],[139.7596023,35.7127261],[139.7601105,35.710775],[139.7602144,35.7103775],[139.7604009,35.7096643],[139.7607757,35.7096846],[139.7608906,35.7091015],[139.761063,35.7081779],[139.7613844,35.7082143],[139.7614608,35.7078019],[139.7626254,35.7078044],[139.7628236,35.7078038],[139.7627669,35.7084408],[139.7636397,35.7084643],[139.7636308,35.7088082],[139.7636573,35.7088079],[139.7637843,35.7088067],[139.7638093,35.7088064],[139.7641049,35.7087976],[139.764182,35.7087944],[139.7642109,35.7099408],[139.7651895,35.7099274],[139.7651996,35.7104642],[139.7661379,35.7104512],[139.7666246,35.7104437],[139.7666171,35.7106187],[139.7666121,35.7107368],[139.7666256,35.7107526],[139.7668036,35.7107513],[139.7668071,35.710871],[139.7672264,35.7108512],[139.7672248,35.710801],[139.7673648,35.7108049],[139.7673637,35.7108729],[139.7673189,35.7108745],[139.7673064,35.7110429],[139.7669515,35.7110825],[139.7669598,35.7112827],[139.7668401,35.7112969],[139.7668529,35.7114067],[139.766942,35.7114046],[139.7676322,35.711475],[139.7676197,35.7115196],[139.7676321,35.7119117],[139.767625,35.7120588],[139.7676998,35.7122702],[139.7677514,35.7125635],[139.7677444,35.7126408],[139.7677832,35.7126686],[139.7676614,35.7127838],[139.7673612,35.7129731],[139.7671202,35.7130812],[139.7668657,35.7131534],[139.7664886,35.7132118],[139.7661643,35.7133024],[139.7660415,35.7133411],[139.7657824,35.7134227],[139.7655357,35.7135293],[139.7652207,35.7137045],[139.7632379,35.7147855],[139.7630183,35.7149014],[139.7629076,35.7149599],[139.7628704,35.7149796],[139.7627064,35.7150767],[139.7620717,35.7154526],[139.7615239,35.7155742],[139.7604242,35.7154609],[139.7593058,35.7153433],[139.7589946,35.7152976],[139.7589383,35.7152366],[139.7590295,35.7149126],[139.7590415,35.7148701]]]}}]}
