{"type":"FeatureCollection","features":[{"type":"Feature","id":"relation/1682268","properties":{"building":"university","building:levels":"9","building:part":"yes","level":"1","man_made":"courtyard","name":"工学部3号館","name:en":"Faculty of Engineering Building 3","name:ja":"工学部3号館","source":"Bing","type":"multipolygon","id":"relation/1682268"},"geometry":{"type":"Polygon","coordinates":[[[139.7621765,35.7146161],[139.7622301,35.7144129],[139.7623184,35.7141081],[139.7623774,35.7141186],[139.7623912,35.714068],[139.762566,35.7140974],[139.7625771,35.7140719],[139.7626571,35.7140877],[139.7627124,35.7140986],[139.7627031,35.7141284],[139.7628746,35.7141562],[139.7628592,35.7142126],[139.7629301,35.7142225],[139.7628661,35.7144624],[139.7627348,35.7145263],[139.7627527,35.7145559],[139.7626089,35.7146243],[139.7625834,35.7145951],[139.7624656,35.7146707],[139.7621765,35.7146161]],[[139.7623089,35.7145378],[139.7624418,35.7145619],[139.7625035,35.7145296],[139.7624552,35.7144726],[139.7626753,35.7143609],[139.762699,35.7142916],[139.7623954,35.7142385],[139.7623089,35.7145378]]]}},{"type":"Feature","id":"relation/1682269","properties":{"building":"university","building:levels":"3","name":"工学部列品館","name:en":"Faculty of Engineering Exhibition Hall","name:es":"Sala de exposiciones de la Facultad de Ingeniería","name:ja":"工学部列品館","type":"multipolygon","id":"relation/1682269"},"geometry":{"type":"Polygon","coordinates":[[[139.7601764,35.7134018],[139.7601599,35.7134611],[139.7600801,35.7134464],[139.7600863,35.7134241],[139.7599546,35.7134014],[139.7599491,35.7134213],[139.7598692,35.7134066],[139.7598854,35.7133485],[139.7598625,35.7133443],[139.7599019,35.7132025],[139.7599249,35.7132067],[139.759947,35.7131273],[139.7600269,35.713142],[139.7600215,35.7131613],[139.7601532,35.7131839],[139.7601578,35.7131671],[139.7602377,35.7131818],[139.7602159,35.71326],[139.7602368,35.7132638],[139.7601974,35.7134057],[139.7601764,35.7134018]],[[139.7599794,35.7133329],[139.7600999,35.7133544],[139.760122,35.713273],[139.7600948,35.7132681],[139.7600795,35.7133245],[139.760014,35.7133128],[139.7600294,35.713256],[139.7600016,35.7132511],[139.7599794,35.7133329]]]}},{"type":"Feature","id":"relation/1682270","properties":{"building":"university","building:levels":"4","name":"工学部4号館","name:en":"Faculty of Engineering Building 4","name:ja":"工学部4号館","source":"Bing","type":"multipolygon","id":"relation/1682270"},"geometry":{"type":"Polygon","coordinates":[[[139.7612388,35.7153802],[139.7614169,35.7147566],[139.7614682,35.7147666],[139.7614735,35.7147492],[139.7616211,35.7147808],[139.7616385,35.7147318],[139.76179,35.7147623],[139.7617766,35.7148124],[139.7619201,35.7148363],[139.7619134,35.7148538],[139.761988,35.7148685],[139.7618198,35.7154231],[139.7617591,35.7154083],[139.7617543,35.7154262],[139.7616364,35.7154548],[139.7615929,35.7154439],[139.7615875,35.7154635],[139.7612911,35.7154025],[139.7612952,35.7153917],[139.7612388,35.7153802]],[[139.7614734,35.7149996],[139.761801,35.7150606],[139.7618419,35.7149145],[139.7617176,35.7148908],[139.7617015,35.7149474],[139.761617,35.7149321],[139.7616371,35.7148744],[139.7615103,35.7148524],[139.7614734,35.7149996]],[[139.7613947,35.7152527],[139.7617273,35.7153155],[139.7617728,35.715164],[139.7614388,35.7150989],[139.7613947,35.7152527]]]}},{"type":"Feature","id":"relation/1682271","properties":{"building":"university","building:levels":"5","name":"工学部6号館","name:en":"Faculty of Engineering Building 6","type":"multipolygon","id":"relation/1682271"},"geometry":{"type":"Polygon","coordinates":[[[139.7612652,35.7143946],[139.7612057,35.714384],[139.7611994,35.714407],[139.76087,35.7143478],[139.7608765,35.714324],[139.7608074,35.7143116],[139.7608579,35.7141261],[139.7608103,35.7141175],[139.7608225,35.7140725],[139.7608376,35.7140171],[139.7608832,35.7140252],[139.760938,35.713824],[139.7610075,35.7138365],[139.7610123,35.713819],[139.7613455,35.7138788],[139.7613399,35.7138993],[139.7613973,35.7139096],[139.7612652,35.7143946]],[[139.7610139,35.7139987],[139.761227,35.7140389],[139.761234,35.7140146],[139.7610209,35.7139744],[139.7610139,35.7139987]],[[139.760944,35.714221],[139.761158,35.7142621],[139.7611667,35.7142322],[139.7609527,35.7141911],[139.760944,35.714221]]]}},{"type":"Feature","id":"relation/1854345","properties":{"building":"university","building:levels":"3","name":"医学部2号館","roof:shape":"flat","type":"multipolygon","id":"relation/1854345"},"geometry":{"type":"Polygon","coordinates":[[[139.7620674,35.7111596],[139.7620718,35.7111287],[139.7620268,35.7111232],[139.7620094,35.7111014],[139.7620114,35.7110862],[139.7620349,35.7110677],[139.762047,35.7110688],[139.7620635,35.7109422],[139.7620256,35.710939],[139.7620355,35.7108633],[139.7620453,35.7107886],[139.762083,35.7107919],[139.7620999,35.7106615],[139.7620919,35.7106604],[139.7620724,35.7106359],[139.7620745,35.7106185],[139.7620973,35.7106027],[139.7621435,35.7106049],[139.7621482,35.7105755],[139.7626518,35.7106179],[139.7626473,35.7106489],[139.7626946,35.7106535],[139.7627133,35.7106753],[139.7627106,35.710696],[139.7626863,35.710713],[139.7625646,35.7107034],[139.7625351,35.7109931],[139.762178,35.7109648],[139.762167,35.7110748],[139.7623226,35.7110873],[139.7623078,35.7111804],[139.7622662,35.7111771],[139.7622609,35.7112332],[139.7621281,35.7112212],[139.7621362,35.7111649],[139.7620674,35.7111596]],[[139.7622056,35.7107843],[139.7624183,35.7108017],[139.7624317,35.7106939],[139.7622189,35.7106765],[139.7622056,35.7107843]]]}},{"type":"Feature","id":"relation/1854348","properties":{"building":"university","building:levels":"4","name":"理学部2号館","name:en":"Faculty of Science Building 2","name:ja":"理学部2号館","type":"multipolygon","id":"relation/1854348"},"geometry":{"type":"Polygon","coordinates":[[[139.7609181,35.7098974],[139.7608852,35.7098917],[139.7609468,35.7096582],[139.7609101,35.7096518],[139.7609511,35.7094963],[139.7609876,35.7095027],[139.7610504,35.7092643],[139.7610818,35.7092698],[139.7611029,35.7092542],[139.7611305,35.709251],[139.7611368,35.7092272],[139.7611595,35.7092312],[139.7611644,35.7092126],[139.7613745,35.7092491],[139.7613693,35.7092685],[139.7614005,35.7092739],[139.7613941,35.7092982],[139.761415,35.7093128],[139.7614209,35.7093343],[139.7614527,35.7093399],[139.7613886,35.7095828],[139.7614205,35.7095884],[139.761383,35.7097305],[139.7613511,35.7097249],[139.7612877,35.7099656],[139.7612541,35.7099598],[139.7612336,35.7099773],[139.7612077,35.7099825],[139.7612017,35.7100055],[139.7611749,35.7100008],[139.7611705,35.7100173],[139.7609595,35.7099806],[139.7609639,35.7099638],[139.7609367,35.709959],[139.7609438,35.7099319],[139.7609249,35.7099183],[139.7609181,35.7098974]],[[139.7611021,35.7095189],[139.7612785,35.7095517],[139.7613196,35.7094061],[139.7611432,35.7093733],[139.7611021,35.7095189]],[[139.7610198,35.7098233],[139.761201,35.709854],[139.7612386,35.709708],[139.7610574,35.7096772],[139.7610198,35.7098233]]]}},{"type":"Feature","id":"relation/1854349","properties":{"building":"university","building:levels":"3","name":"医学部1号館","name:en":"Faculty of Medicine Building 1","name:ja":"医学部1号館","type":"multipolygon","id":"relation/1854349"},"geometry":{"type":"Polygon","coordinates":[[[139.7619604,35.7101061],[139.7619345,35.7101109],[139.7619265,35.7101399],[139.7618997,35.7101351],[139.7618959,35.710149],[139.7616505,35.7101049],[139.7616543,35.7100908],[139.761627,35.7100859],[139.7616347,35.7100578],[139.7616128,35.7100424],[139.7616061,35.7100208],[139.7615709,35.7100145],[139.7616125,35.7098618],[139.7615835,35.7098568],[139.7616046,35.7097778],[139.7616345,35.709783],[139.7616762,35.7096259],[139.7616485,35.7096211],[139.76167,35.7095404],[139.7616987,35.7095454],[139.7617397,35.7093947],[139.7617747,35.7094009],[139.7617928,35.7093806],[139.7618221,35.7093744],[139.7618318,35.7093385],[139.7621318,35.7093924],[139.762121,35.7094319],[139.7621414,35.7094469],[139.7621487,35.7094669],[139.7621812,35.7094727],[139.7620114,35.7100959],[139.7619772,35.7100898],[139.7619604,35.7101061]],[[139.7616945,35.7100031],[139.7619124,35.7100431],[139.7619446,35.7099273],[139.7617267,35.7098873],[139.7616945,35.7100031]],[[139.7618233,35.7098118],[139.7618501,35.7098166],[139.7618586,35.7097856],[139.7619118,35.7097951],[139.7619033,35.7098262],[139.7619689,35.709838],[139.7619755,35.709814],[139.7619368,35.709807],[139.7619647,35.709705],[139.7620034,35.709712],[139.7620095,35.7096895],[139.761945,35.7096779],[139.761936,35.709711],[139.7618827,35.7097014],[139.7618917,35.7096683],[139.7618639,35.7096633],[139.7618233,35.7098118]],[[139.7618111,35.7095617],[139.7620347,35.7096012],[139.762066,35.7094844],[139.7618425,35.7094449],[139.7618111,35.7095617]]]}},{"type":"Feature","id":"relation/1854350","properties":{"building":"yes","source":"Bing","type":"multipolygon","id":"relation/1854350"},"geometry":{"type":"Polygon","coordinates":[[[139.7650054,35.7116408],[139.7650036,35.7115931],[139.764998,35.7114444],[139.7650269,35.7114437],[139.7650281,35.7114801],[139.7650925,35.7114787],[139.7650932,35.7115003],[139.7650332,35.7115016],[139.7650363,35.7115921],[139.7650379,35.71164],[139.7657936,35.7116225],[139.7657901,35.711514],[139.76583,35.7115131],[139.7658726,35.7115124],[139.7658869,35.7119159],[139.7659975,35.7119139],[139.765999,35.7119429],[139.7660727,35.7119412],[139.7660735,35.711964],[139.7665204,35.7119537],[139.7665228,35.7120214],[139.7665412,35.712021],[139.7665434,35.7120822],[139.7664915,35.7120834],[139.7664939,35.7121532],[139.7660683,35.7121631],[139.7660668,35.71212],[139.7658663,35.7121246],[139.7658175,35.7121258],[139.7658084,35.7118654],[139.7649622,35.7118849],[139.7649713,35.7121447],[139.7648996,35.7121463],[139.7644434,35.7121569],[139.7644457,35.7122229],[139.7644809,35.7122221],[139.7644835,35.7122963],[139.7644857,35.7123598],[139.764449,35.7123607],[139.7644533,35.7124834],[139.7649129,35.7124728],[139.764933,35.7124723],[139.7649411,35.7127022],[139.7649449,35.712809],[139.7649834,35.7128081],[139.764988,35.7129397],[139.7649513,35.7129406],[139.7649548,35.7130397],[139.7643265,35.7130543],[139.7643058,35.7124629],[139.7643001,35.7122998],[139.7642912,35.7120473],[139.7642237,35.7120489],[139.7642172,35.7118631],[139.7642817,35.7118616],[139.7642725,35.7115997],[139.76427,35.7115303],[139.7644518,35.711526],[139.7644543,35.7115972],[139.7644568,35.7116684],[139.7644283,35.7116691],[139.7644304,35.711731],[139.7649037,35.71172],[139.764901,35.7116432],[139.7650054,35.7116408]],[[139.7644707,35.7129428],[139.7649004,35.7129316],[139.7648956,35.7128113],[139.7644659,35.7128225],[139.7644707,35.7129428]],[[139.7644644,35.7127146],[139.7648949,35.7127043],[139.7648905,35.7125829],[139.76446,35.7125932],[139.7644644,35.7127146]],[[139.7646998,35.7120167],[139.764912,35.7120111],[139.7649059,35.7118567],[139.7646937,35.7118623],[139.7646998,35.7120167]]]}},{"type":"Feature","id":"relation/6859326","properties":{"building":"university","building:levels":"4","name":"法文2号館","name:en":"Law & Letters Building 2","name:es":"Edificio de Leyes y Letras 2","name:ja":"法文2号館","roof:shape":"flat","type":"multipolygon","wheelchair":"yes","id":"relation/6859326"},"geometry":{"type":"Polygon","coordinates":[[[139.7605683,35.7129846],[139.7605824,35.7129285],[139.7605512,35.7129228],[139.7606766,35.7124502],[139.7606978,35.7124534],[139.7607169,35.7123862],[139.760751,35.7123642],[139.7608067,35.7123735],[139.7608241,35.7124083],[139.7609227,35.7124252],[139.7609562,35.7124012],[139.7610159,35.7124116],[139.7610297,35.7124437],[139.7609563,35.7127208],[139.7609917,35.7127274],[139.7609998,35.7127464],[139.7610586,35.7127572],[139.7611218,35.7127687],[139.7611334,35.7127553],[139.7611632,35.7127604],[139.7611677,35.7127794],[139.7614625,35.712833],[139.7614598,35.7128444],[139.761588,35.7128682],[139.7616669,35.7129687],[139.7616612,35.7129913],[139.7616877,35.7129954],[139.7616736,35.7130553],[139.7616463,35.713051],[139.7616386,35.7130816],[139.7615164,35.7131445],[139.7613874,35.7131226],[139.761384,35.7131341],[139.7610846,35.7130792],[139.7610702,35.7130935],[139.761041,35.7130886],[139.7610354,35.7130702],[139.7609748,35.7130591],[139.7609172,35.7130485],[139.7609027,35.7130637],[139.7608722,35.7130585],[139.7608682,35.7130395],[139.7605683,35.7129846]],[[139.7607727,35.7126156],[139.7608545,35.7126306],[139.7608625,35.7126017],[139.7607807,35.7125868],[139.7607727,35.7126156]],[[139.7607098,35.7128401],[139.7607933,35.7128555],[139.7608174,35.7127692],[139.7607339,35.7127538],[139.7607098,35.7128401]]]}},{"type":"Feature","id":"relation/9602165","properties":{"building":"residential","name":"看護職員等宿舎1号棟","type":"multipolygon","id":"relation/9602165"},"geometry":{"type":"MultiPolygon","coordinates":[[[[139.7669614,35.7123681],[139.7669862,35.7123677],[139.7669878,35.7124292],[139.7669646,35.7124296],[139.7669655,35.7124655],[139.7667442,35.7124691],[139.7667401,35.7123019],[139.7669597,35.7122983],[139.7669614,35.7123681]]],[[[139.76679,35.712486],[139.7669684,35.7124811],[139.7669698,35.7125205],[139.7669844,35.7125245],[139.7669927,35.7125369],[139.7669933,35.712548],[139.7669852,35.712559],[139.7669719,35.7125636],[139.7669734,35.7126007],[139.766795,35.7126056],[139.76679,35.712486]]],[[[139.7667543,35.7127876],[139.7667495,35.7126315],[139.7668395,35.7126296],[139.7668392,35.7126196],[139.7668748,35.7126189],[139.767309,35.71261],[139.7673102,35.7126488],[139.7673368,35.7126482],[139.7673385,35.7127023],[139.7673116,35.7127028],[139.7673139,35.7127762],[139.7667543,35.7127876]]]]}},{"type":"Feature","id":"relation/9693129","properties":{"building":"university","building:levels":"12","name":"工学部2号館","name:en":"Faculty of Engineering Building 2","name:ja":"工学部2号館","notes":"ugly appearance","roof:shape":"flat","type":"multipolygon","id":"relation/9693129"},"geometry":{"type":"Polygon","coordinates":[[[139.7614638,35.7145157],[139.7615173,35.7143072],[139.761632,35.7143263],[139.7616809,35.7142613],[139.7615207,35.7142321],[139.7615811,35.7140142],[139.7616223,35.7140217],[139.7616522,35.7139138],[139.7622166,35.7140169],[139.7621878,35.7141206],[139.7622201,35.7141265],[139.7621576,35.7143521],[139.7619754,35.7143202],[139.7619643,35.7143571],[139.7619548,35.7143898],[139.7621257,35.714422],[139.7620674,35.7146274],[139.7614638,35.7145157]],[[139.7617291,35.7143465],[139.7619179,35.7143818],[139.7619374,35.7143129],[139.7617487,35.7142776],[139.7617291,35.7143465]]]}},{"type":"Feature","id":"relation/19171345","properties":{"building":"university","building:levels":"10","name":"Faculty of Science Building 1 Central;理学部1号館 中央棟","name:en":"Faculty of Science Building 1 Central Wing","name:ja":"理学部1号館 中央棟","source":"Bing","type":"multipolygon","id":"relation/19171345"},"geometry":{"type":"Polygon","coordinates":[[[139.7631182,35.713989],[139.7631333,35.7139356],[139.7630799,35.7139256],[139.7630265,35.7139156],[139.7630341,35.7138886],[139.7630864,35.7138984],[139.7631398,35.7139084],[139.7632316,35.7135847],[139.7632342,35.7135755],[139.7631823,35.7135658],[139.7631275,35.7135555],[139.7631348,35.7135294],[139.7631885,35.7135396],[139.7632422,35.7135498],[139.7632587,35.7134916],[139.7635132,35.7135392],[139.7634968,35.7135971],[139.7634894,35.7136231],[139.763395,35.713956],[139.7633874,35.713983],[139.7633722,35.7140365],[139.7631182,35.713989]]]}},{"type":"Feature","id":"way/122948715","properties":{"building":"university","building:levels":"3","name":"工学部13号館","name:en":"Faculty of Engineering Building 13","name:ja":"工学部13号館","source":"Bing, 2007-04","id":"way/122948715"},"geometry":{"type":"Polygon","coordinates":[[[139.7620608,35.7150938],[139.7621149,35.7148932],[139.7625678,35.7149692],[139.7625619,35.7149852],[139.7626408,35.7150661],[139.7625974,35.7150922],[139.7626188,35.7151151],[139.7624674,35.7152046],[139.7623278,35.7150552],[139.7622434,35.7151125],[139.762354,35.7152249],[139.7622012,35.7153261],[139.7621599,35.7152861],[139.7620343,35.7152638],[139.7620738,35.7151339],[139.7621826,35.7151518],[139.7622183,35.715123],[139.7620608,35.7150938]]]}},{"type":"Feature","id":"way/122948716","properties":{"building":"university","building:levels":"11","name":"工学部14号館","name:en":"Faculty of Engineering Building 14","name:ja":"工学部14号館","source":"Bing, 2007-04","id":"way/122948716"},"geometry":{"type":"Polygon","coordinates":[[[139.7594215,35.7145872],[139.7593224,35.7145704],[139.7593145,35.7146014],[139.759231,35.7145873],[139.7592379,35.7145602],[139.7591953,35.714553],[139.7593535,35.7139361],[139.7595786,35.7139741],[139.7594215,35.7145872]]]}},{"type":"Feature","id":"way/122948722","properties":{"building":"university","building:levels":"4","name":"法学部3号館","name:en":"Faculty of Law Building 3","name:ja":"法学部3号館","id":"way/122948722"},"geometry":{"type":"Polygon","coordinates":[[[139.760304,35.7129317],[139.7602231,35.7129172],[139.7602319,35.7128847],[139.7601018,35.7128615],[139.7600928,35.7128946],[139.7600146,35.7128806],[139.7600361,35.7128017],[139.7600123,35.7127975],[139.7601365,35.7123374],[139.7601569,35.7123409],[139.7601775,35.7122653],[139.7604699,35.7123176],[139.7604505,35.7123894],[139.7604734,35.7123935],[139.7604487,35.7124845],[139.7604283,35.7124809],[139.7603503,35.7127685],[139.7603697,35.712772],[139.7603471,35.7128556],[139.7603256,35.7128518],[139.760304,35.7129317]]]}},{"type":"Feature","id":"way/122948723","properties":{"building":"service","source":"Bing, 2007-04","id":"way/122948723"},"geometry":{"type":"Polygon","coordinates":[[[139.7605624,35.7154062],[139.7605811,35.7153354],[139.7611229,35.7154295],[139.761103,35.7154922],[139.7605624,35.7154062]]]}},{"type":"Feature","id":"way/122948728","properties":{"building":"university","building:levels":"4","name":"工学部1号館","name:en":"Faculty of Engineering Building 1","name:ja":"工学部1号館","source":"Bing, 2007-04","toilets:wheelchair":"no","wheelchair":"yes","id":"way/122948728"},"geometry":{"type":"Polygon","coordinates":[[[139.7595755,35.7146039],[139.7597048,35.7141151],[139.75974,35.7141213],[139.7597478,35.7140915],[139.759787,35.7140984],[139.7597929,35.714076],[139.7600115,35.7141141],[139.7600181,35.7140891],[139.7601148,35.714106],[139.7602114,35.7141228],[139.7602046,35.7141488],[139.7604315,35.7141884],[139.7604253,35.7142122],[139.7604602,35.7142183],[139.7604512,35.7142522],[139.760474,35.7142561],[139.7603464,35.7147384],[139.7595755,35.7146039]]]}},{"type":"Feature","id":"way/122948731","properties":{"building":"service","source":"Bing, 2007-04","id":"way/122948731"},"geometry":{"type":"Polygon","coordinates":[[[139.7592926,35.7151949],[139.7593095,35.7151245],[139.7604786,35.7153221],[139.7604619,35.7153911],[139.7592926,35.7151949]]]}},{"type":"Feature","id":"way/122948737","properties":{"building":"university","name":"工学部5号館","name:en":"Faculty of Engineering Building 5","name:ja":"工学部5号館","source":"Bing, 2007-04","id":"way/122948737"},"geometry":{"type":"Polygon","coordinates":[[[139.7603286,35.7149997],[139.7594012,35.7148322],[139.7591885,35.7147938],[139.7592164,35.7146922],[139.759308,35.7147087],[139.7593283,35.7146346],[139.759448,35.7146562],[139.7603768,35.714824],[139.7603286,35.7149997]]]}},{"type":"Feature","id":"way/122948745","properties":{"building":"university","name":"工学部11号館","name:en":"Faculty of Engineering Building 11","name:ja":"工学部11号館","source":"Bing, 2007-04","id":"way/122948745"},"geometry":{"type":"Polygon","coordinates":[[[139.7593588,35.7138693],[139.7594728,35.7134415],[139.7596055,35.7134648],[139.7595204,35.7137843],[139.759577,35.7137943],[139.7595488,35.7139002],[139.7594713,35.7138866],[139.7594658,35.7139071],[139.7594152,35.7138982],[139.75942,35.7138801],[139.7593588,35.7138693]]]}},{"type":"Feature","id":"way/122948747","properties":{"building":"university","building:levels":"9","name":"工学部8号館","name:en":"Faculty of Engineering Building 8","name:ja":"工学部8号館","operator":"東京大学","source":"Bing, 2007-04","wheelchair":"yes","id":"way/122948747"},"geometry":{"type":"Polygon","coordinates":[[[139.7604277,35.7147259],[139.7604788,35.7145567],[139.760517,35.7145643],[139.7612971,35.7147121],[139.7613551,35.7147231],[139.7613065,35.7148924],[139.7612455,35.7148808],[139.7610427,35.7148424],[139.7609894,35.7150278],[139.7606245,35.7149587],[139.7606777,35.7147736],[139.7604611,35.7147326],[139.7604277,35.7147259]]]}},{"type":"Feature","id":"way/122948752","properties":{"building":"university","building:levels":"6","layer":"1","name":"工学部7号館","name:en":"Faculty of Engineering Building 7","name:ja":"工学部7号館","source":"Bing, 2007-04","id":"way/122948752"},"geometry":{"type":"Polygon","coordinates":[[[139.7612108,35.7152161],[139.7611741,35.7153455],[139.7602351,35.71517],[139.7602638,35.7150687],[139.760343,35.7150835],[139.760351,35.7150553],[139.7612108,35.7152161]]]}},{"type":"Feature","id":"way/134668789","properties":{"building":"university","building:levels":"4","name":"安田講堂","name:en":"Yasuda Auditorium","name:es":"Auditorio Yasuda","name:fr":"Auditorium Yasuda","name:ja":"安田講堂","source":"Bing, 2014-09","tourism":"attraction","wheelchair":"no","wikidata":"Q8191484","wikimedia_commons":"Category:Yasuda Auditorium","wikipedia":"ja:安田講堂","id":"way/134668789"},"geometry":{"type":"Polygon","coordinates":[[[139.7620732,35.7133513],[139.7620939,35.7133548],[139.7621062,35.7133466],[139.7621383,35.7132284],[139.7621867,35.7132367],[139.7622075,35.7131589],[139.7623592,35.7131817],[139.7623483,35.7132225],[139.7624406,35.7132546],[139.76251,35.7133117],[139.7625421,35.7132933],[139.7625743,35.7133436],[139.762538,35.7133565],[139.762553,35.7134145],[139.7625476,35.7134737],[139.7625184,35.7135346],[139.762474,35.7135805],[139.7625031,35.713601],[139.7624488,35.7136371],[139.7624252,35.7136104],[139.762339,35.7136361],[139.7622441,35.7136354],[139.7622329,35.7136747],[139.7620745,35.7136465],[139.7620988,35.7135626],[139.7620495,35.7135554],[139.7620813,35.7134383],[139.7620735,35.7134283],[139.7620525,35.7134248],[139.7620732,35.7133513]]]}},{"type":"Feature","id":"way/134668792","properties":{"building":"university","building:levels":"3","name":"法文1号館","name:en":"Law & Letters Building 1","name:es":"Edificio de Leyes y Letras 2","name:ja":"法文1号館","source":"Bing, 2011-10","toilets:wheelchair":"yes","wheelchair":"yes","id":"way/134668792"},"geometry":{"type":"Polygon","coordinates":[[[139.7604394,35.713468],[139.760414,35.7134635],[139.7604645,35.7132777],[139.7604882,35.713282],[139.7605047,35.7132275],[139.7605849,35.7132427],[139.7605926,35.7132157],[139.7606804,35.713232],[139.7606736,35.7132595],[139.7607959,35.7132827],[139.7608117,35.7132672],[139.7608446,35.7132727],[139.7608505,35.7132931],[139.760907,35.7133038],[139.7609658,35.7133149],[139.7609842,35.7133011],[139.761015,35.7133071],[139.7610211,35.7133147],[139.7611587,35.7133373],[139.7611625,35.71333],[139.761258,35.7133469],[139.7612505,35.7133675],[139.7613086,35.7133789],[139.7613041,35.7133928],[139.7614342,35.7134142],[139.7615158,35.713519],[139.7615069,35.7135509],[139.7615322,35.7135557],[139.7615208,35.713597],[139.7614953,35.7135931],[139.7614848,35.7136308],[139.7613593,35.7136915],[139.7611673,35.7136605],[139.7611632,35.7136795],[139.7609426,35.7136381],[139.7609198,35.7136501],[139.7608843,35.7136425],[139.7608759,35.713626],[139.7608204,35.7136159],[139.7607607,35.713605],[139.7607408,35.7136185],[139.7607167,35.7136136],[139.7607098,35.7135957],[139.7606711,35.7135886],[139.7606776,35.7135668],[139.7605972,35.713552],[139.7605918,35.7135754],[139.7604945,35.7135569],[139.7605001,35.7135343],[139.7604247,35.7135205],[139.7604394,35.713468]]]}},{"type":"Feature","id":"way/137625384","properties":{"building":"university","building:levels":"6","source":"Bing","id":"way/137625384"},"geometry":{"type":"Polygon","coordinates":[[[139.7636338,35.7103074],[139.7636129,35.7103063],[139.7636018,35.7103982],[139.7626978,35.7103367],[139.7627013,35.7103139],[139.7626091,35.7103057],[139.7626522,35.7099721],[139.762739,35.7099795],[139.7627407,35.7099618],[139.7628472,35.7099682],[139.762837,35.7100792],[139.7627573,35.7100744],[139.7627369,35.7102326],[139.7634966,35.7102925],[139.7635195,35.7101207],[139.7636544,35.7101311],[139.7636338,35.7103074]]]}},{"type":"Feature","id":"way/137625387","properties":{"building":"university","building:levels":"7","name":"赤門総合研究棟","name:ja":"赤門総合研究棟","id":"way/137625387"},"geometry":{"type":"Polygon","coordinates":[[[139.7608617,35.710184],[139.760804,35.7103977],[139.7615238,35.7105256],[139.7614837,35.7106744],[139.7606054,35.7105183],[139.760703,35.7101564],[139.7607431,35.7101635],[139.7607488,35.7101421],[139.7608252,35.7101557],[139.7608195,35.7101765],[139.7608617,35.710184]]]}},{"type":"Feature","id":"way/137625391","properties":{"building":"university","building:levels":"2","name":"プレハブ研究A棟","name:en":"Prefab Research Building A","name:ja":"プレハブ研究A棟","source":"Bing","id":"way/137625391"},"geometry":{"type":"Polygon","coordinates":[[[139.7643207,35.7132312],[139.7647618,35.713221],[139.7647667,35.7133582],[139.7643255,35.7133685],[139.7643207,35.7132312]]]}},{"type":"Feature","id":"way/137625392","properties":{"building":"residential","name":"看護師宿舎2号棟","name:en":"Nurse's Living Quarter 2","source":"Bing","id":"way/137625392"},"geometry":{"type":"Polygon","coordinates":[[[139.7668272,35.7119491],[139.7672165,35.711941],[139.7672188,35.7120155],[139.7670708,35.7120186],[139.7670723,35.7120642],[139.766831,35.7120692],[139.7668272,35.7119491]]]}},{"type":"Feature","id":"way/137625393","properties":{"building":"university","building:levels":"12","building:levels:underground":"2","name":"理学部1号館 西棟","name:en":"Faculty of Science Building 1 West Wing","name:ja":"理学部1号館 西棟","source":"Bing","id":"way/137625393"},"geometry":{"type":"Polygon","coordinates":[[[139.7627566,35.7139218],[139.7628117,35.7137256],[139.7628262,35.7136737],[139.7628371,35.713635],[139.7628965,35.7134231],[139.7631044,35.7134615],[139.7631514,35.7134702],[139.7631348,35.7135294],[139.7631275,35.7135555],[139.7630921,35.7136816],[139.7630823,35.7137167],[139.7630667,35.7137722],[139.7630341,35.7138886],[139.7630265,35.7139156],[139.7630116,35.7139689],[139.7627566,35.7139218]]]}},{"type":"Feature","id":"way/137625397","properties":{"building":"service","name":"設備管理棟","name:en":"Maintenance Building","source":"Bing","id":"way/137625397"},"geometry":{"type":"Polygon","coordinates":[[[139.7648118,35.7102085],[139.7651393,35.7101994],[139.7651493,35.7104355],[139.7648217,35.7104446],[139.7648118,35.7102085]]]}},{"type":"Feature","id":"way/137625399","properties":{"building":"university","building:levels":"14","name":"医学部教育研究棟","name:en":"Faculty of Medicine Building","name:ja":"医学部教育研究棟","wikidata":"Q11524669","id":"way/137625399"},"geometry":{"type":"Polygon","coordinates":[[[139.7623246,35.7102994],[139.7620114,35.7102432],[139.7622536,35.7093521],[139.7625668,35.7094083],[139.7623246,35.7102994]]]}},{"type":"Feature","id":"way/137625406","properties":{"building":"university","source":"Bing","id":"way/137625406"},"geometry":{"type":"Polygon","coordinates":[[[139.7629555,35.7097617],[139.7632428,35.7097825],[139.7632224,35.7099687],[139.7631935,35.7099666],[139.763167,35.7102079],[139.7629297,35.7101907],[139.7629352,35.7101405],[139.7628757,35.7101362],[139.7629057,35.7098634],[139.762944,35.7098661],[139.7629555,35.7097617]]]}},{"type":"Feature","id":"way/137625407","properties":{"building":"university","building:levels":"8","name":"第2本部棟","name:en":"Headquarters Building 2","source":"Bing","id":"way/137625407"},"geometry":{"type":"Polygon","coordinates":[[[139.7630148,35.7093847],[139.7630232,35.709356],[139.7630464,35.709345],[139.7631468,35.7089563],[139.7631343,35.7089411],[139.7631422,35.7089157],[139.7631648,35.7089044],[139.7632021,35.7089116],[139.7632112,35.7089262],[139.763296,35.7089412],[139.7633136,35.7089325],[139.7633475,35.7089372],[139.7633628,35.7089549],[139.7633545,35.7089826],[139.763336,35.708994],[139.7632355,35.7093795],[139.7632467,35.7093957],[139.763237,35.709424],[139.7632182,35.7094348],[139.7631834,35.7094309],[139.7631697,35.7094141],[139.7630854,35.7093991],[139.7630637,35.7094094],[139.7630311,35.709401],[139.7630148,35.7093847]]]}},{"type":"Feature","id":"way/137625408","properties":{"building":"university","building:levels":"2","name":"プレハブ研究B棟","name:en":"Prefab Research Building B","name:ja":"プレハブ研究B棟","source":"Bing","id":"way/137625408"},"geometry":{"type":"Polygon","coordinates":[[[139.7649678,35.7134534],[139.7647957,35.7134572],[139.7647877,35.713218],[139.7649598,35.7132142],[139.7649678,35.7134534]]]}},{"type":"Feature","id":"way/137625410","properties":{"building":"kindergarten","owner":"東京大学","source":"Bing","id":"way/137625410"},"geometry":{"type":"Polygon","coordinates":[[[139.7669135,35.7108934],[139.7672124,35.7108868],[139.7672173,35.7110339],[139.7669184,35.7110404],[139.7669135,35.7108934]]]}},{"type":"Feature","id":"way/137625413","properties":{"building":"university","building:levels":"14","name":"経済学研究科棟","name:ja":"経済学研究科棟","roof:shape":"flat","id":"way/137625413"},"geometry":{"type":"Polygon","coordinates":[[[139.7611908,35.71038],[139.761233,35.7102238],[139.7612905,35.710234],[139.7612959,35.7102139],[139.7615486,35.7102589],[139.7615421,35.7102829],[139.7615832,35.7102903],[139.761567,35.7103501],[139.7616105,35.7103578],[139.7615943,35.7104176],[139.7615472,35.7104092],[139.7615388,35.7104402],[139.7615001,35.7104333],[139.7614939,35.7104559],[139.7612425,35.7104111],[139.7612481,35.7103902],[139.7611908,35.71038]]]}},{"type":"Feature","id":"way/137625414","properties":{"building":"residential","name":"看護師宿舎3号棟","source":"Bing","id":"way/137625414"},"geometry":{"type":"Polygon","coordinates":[[[139.7668293,35.7115541],[139.7670399,35.711551],[139.7670442,35.7117427],[139.7669404,35.7117442],[139.7669403,35.7117381],[139.7668988,35.7117387],[139.7668974,35.7116777],[139.7668679,35.7116782],[139.7668677,35.7116693],[139.7668319,35.7116699],[139.7668293,35.7115541]]]}},{"type":"Feature","id":"way/137625417","properties":{"building":"university","name":"薬学部資料館","name:ja":"薬学部資料館","source":"Bing","id":"way/137625417"},"geometry":{"type":"Polygon","coordinates":[[[139.7632609,35.7099406],[139.763286,35.7097316],[139.763433,35.7097432],[139.7634079,35.7099522],[139.7632609,35.7099406]]]}},{"type":"Feature","id":"way/137625419","properties":{"building":"university","building:levels":"2","name":"医学部国際共同研究棟","id":"way/137625419"},"geometry":{"type":"Polygon","coordinates":[[[139.7625136,35.7112215],[139.7625178,35.7111867],[139.7625347,35.7110571],[139.7628314,35.7110821],[139.7628103,35.7112465],[139.7625136,35.7112215]]]}},{"type":"Feature","id":"way/137625420","properties":{"building":"university","building:levels":"3","name":"第二食堂","name:en":"Second Refectory","name:ja":"第二食堂","short_name":"二食","source":"Bing","id":"way/137625420"},"geometry":{"type":"Polygon","coordinates":[[[139.7642711,35.7134687],[139.7643612,35.7134498],[139.7648266,35.7135081],[139.7648176,35.7135569],[139.764864,35.7135625],[139.7648479,35.7136495],[139.7648008,35.7136438],[139.7647916,35.7136938],[139.7643622,35.7136401],[139.7643279,35.7136919],[139.7643347,35.7137039],[139.7646064,35.7137583],[139.7645656,35.7138929],[139.7644145,35.7138627],[139.764383,35.7138778],[139.7642775,35.7138594],[139.7642986,35.7137792],[139.7642376,35.7137659],[139.7642164,35.7137561],[139.7641987,35.7137363],[139.7641936,35.7137142],[139.7642003,35.7136892],[139.7642134,35.7136758],[139.7641893,35.7136505],[139.7642241,35.7136244],[139.7642521,35.7135924],[139.7642718,35.713558],[139.7642754,35.7135374],[139.7642791,35.7135166],[139.7642711,35.7134687]]]}},{"type":"Feature","id":"way/137625422","properties":{"building":"yes","source":"Bing","id":"way/137625422"},"geometry":{"type":"Polygon","coordinates":[[[139.7648674,35.7099616],[139.7651321,35.7099573],[139.7651344,35.7100523],[139.7648697,35.7100566],[139.7648674,35.7099616]]]}},{"type":"Feature","id":"way/137625426","properties":{"building":"hospital","name":"南研究棟","name:en":"South Research Building","source":"Bing","id":"way/137625426"},"geometry":{"type":"Polygon","coordinates":[[[139.7640646,35.7103117],[139.7640611,35.7101951],[139.7641476,35.7101934],[139.7641413,35.7099839],[139.7647881,35.709971],[139.7647926,35.7101195],[139.7643055,35.7101292],[139.7643132,35.7103834],[139.7647937,35.7103738],[139.7647978,35.7105076],[139.7641609,35.7105203],[139.7641546,35.71031],[139.7640646,35.7103117]]]}},{"type":"Feature","id":"way/137625430","properties":{"building":"university","source":"Bing","id":"way/137625430"},"geometry":{"type":"Polygon","coordinates":[[[139.7634092,35.7094506],[139.7634683,35.7092444],[139.763726,35.7092931],[139.7636668,35.7094993],[139.7634092,35.7094506]]]}},{"type":"Feature","id":"way/137625432","properties":{"building":"yes","name":"東京大学総合研究博物館","name:en":"The University Museum, the University of Tokyo","tourism":"museum","website":"https://www.um.u-tokyo.ac.jp/","wikidata":"Q15524927","wikimedia_commons":"Category:The University Museum, The University of Tokyo","wikipedia":"ja:東京大学総合研究博物館","id":"way/137625432"},"geometry":{"type":"Polygon","coordinates":[[[139.7611127,35.7087251],[139.7611063,35.7087487],[139.7610669,35.7087435],[139.7610323,35.7087357],[139.7610387,35.7087116],[139.7610099,35.7087066],[139.7611053,35.7083476],[139.7611202,35.7083449],[139.7611332,35.7082909],[139.7612327,35.7083067],[139.7612277,35.7083275],[139.7612443,35.7083301],[139.7612609,35.7083234],[139.761342,35.7083288],[139.76139,35.7083503],[139.7614165,35.7083718],[139.7614099,35.7083959],[139.7614419,35.7084016],[139.7613428,35.7087663],[139.7611127,35.7087251]]]}},{"type":"Feature","id":"way/137625433","properties":{"building":"dormitory","name":"Sanjo Tatsuokamon Annex","source":"Bing","id":"way/137625433"},"geometry":{"type":"Polygon","coordinates":[[[139.7640456,35.709476],[139.7640315,35.7090132],[139.7641437,35.709011],[139.7641578,35.7094737],[139.7640456,35.709476]]]}},{"type":"Feature","id":"way/137625439","properties":{"building":"university","building:levels":"4","name":"医学部総合中央館","wheelchair":"yes","id":"way/137625439"},"geometry":{"type":"Polygon","coordinates":[[[139.7630203,35.7108991],[139.7630535,35.7106558],[139.7632937,35.7106775],[139.7636039,35.7107054],[139.7635707,35.7109486],[139.7630203,35.7108991]]]}},{"type":"Feature","id":"way/137625444","properties":{"building":"university","name":"薬学系総合研究棟","name:ja":"薬学系総合研究棟","source":"Bing","id":"way/137625444"},"geometry":{"type":"Polygon","coordinates":[[[139.7637447,35.7100961],[139.7634777,35.7101055],[139.7634545,35.7096693],[139.7637214,35.7096599],[139.7637447,35.7100961]]]}},{"type":"Feature","id":"way/137625450","properties":{"building":"university","name":"医学部4号館","name:en":"Faculty of Medicine Building 4","source":"Bing","id":"way/137625450"},"geometry":{"type":"Polygon","coordinates":[[[139.764846,35.7101759],[139.7648421,35.7100775],[139.7650691,35.7100716],[139.765073,35.71017],[139.764846,35.7101759]]]}},{"type":"Feature","id":"way/137625455","properties":{"amenity":"dojo","building":"university","name":"七徳堂","name:en":"Shichitokudo","name:es":"Shichitokudo","source":"Bing","sport":"aikido;karate;kendo;judo","id":"way/137625455"},"geometry":{"type":"Polygon","coordinates":[[[139.7629931,35.7113553],[139.7630324,35.7110606],[139.7633011,35.7110842],[139.7632759,35.7112729],[139.7633184,35.7112767],[139.7633021,35.7113991],[139.7631749,35.7113879],[139.7631771,35.7113715],[139.7629931,35.7113553]]]}},{"type":"Feature","id":"way/141597716","properties":{"building":"hospital","building:levels":"2","name":"最先端臨床研究センター","name:en":"Advanced Clinical Research Center","name:ja":"最先端臨床研究センター","source":"Bing","id":"way/141597716"},"geometry":{"type":"Polygon","coordinates":[[[139.765869,35.7133939],[139.7656245,35.7133979],[139.7656254,35.7134362],[139.7655543,35.7134373],[139.7655498,35.7132592],[139.7660392,35.7132512],[139.7660415,35.7133411],[139.765869,35.7133939]]]}},{"type":"Feature","id":"way/142583749","properties":{"addr:block_number":"3","addr:city":"文京区","addr:country":"JP","addr:housenumber":"1","addr:neighbourhood":"本郷七丁目","addr:postcode":"113-0033","building":"yes","name":"山上会館","name:en":"Sanjo Conference Hall","name:ja":"山上会館","name:ru":"Конференц-зал Сандзё","id":"way/142583749"},"geometry":{"type":"Polygon","coordinates":[[[139.7628913,35.7123334],[139.7627895,35.7123356],[139.762787,35.7122586],[139.7626417,35.7122618],[139.7625539,35.7122633],[139.7625511,35.7121597],[139.7625471,35.7119503],[139.7625108,35.7119507],[139.7625088,35.7118447],[139.7626919,35.7118424],[139.7627271,35.7118416],[139.7627287,35.7118883],[139.7628183,35.7118864],[139.7628248,35.7120797],[139.7628827,35.7120784],[139.7628913,35.7123334]]]}},{"type":"Feature","id":"way/169071990","properties":{"building":"yes","source":"Bing","id":"way/169071990"},"geometry":{"type":"Polygon","coordinates":[[[139.759937,35.7150589],[139.7599272,35.7150938],[139.7599163,35.7151321],[139.7599081,35.7151611],[139.7598675,35.7151535],[139.7597393,35.7151296],[139.7596927,35.7151209],[139.7597216,35.7150187],[139.7597713,35.715028],[139.7598965,35.7150507],[139.759937,35.7150589]]]}},{"type":"Feature","id":"way/169071991","properties":{"building":"yes","source":"Bing","id":"way/169071991"},"geometry":{"type":"Polygon","coordinates":[[[139.7596089,35.7151235],[139.7595095,35.7151045],[139.7595357,35.7150142],[139.7596351,35.7150332],[139.7596089,35.7151235]]]}},{"type":"Feature","id":"way/169071992","properties":{"building":"yes","source":"Bing","id":"way/169071992"},"geometry":{"type":"Polygon","coordinates":[[[139.759398,35.7150596],[139.7593803,35.715133],[139.7591085,35.7150897],[139.7591263,35.7150163],[139.759398,35.7150596]]]}},{"type":"Feature","id":"way/169071993","properties":{"building":"yes","source":"Bing","id":"way/169071993"},"geometry":{"type":"Polygon","coordinates":[[[139.7598965,35.7150507],[139.7598883,35.7150843],[139.7599272,35.7150938],[139.7599163,35.7151321],[139.7599081,35.7151611],[139.7597393,35.7151296],[139.7597713,35.715028],[139.7598965,35.7150507]]]}},{"type":"Feature","id":"way/169071994","properties":{"building":"yes","source":"Bing","id":"way/169071994"},"geometry":{"type":"Polygon","coordinates":[[[139.7591949,35.7153116],[139.7590419,35.7152813],[139.7590703,35.7151866],[139.7592233,35.7152169],[139.7591949,35.7153116]]]}},{"type":"Feature","id":"way/169071996","properties":{"building":"yes","source":"Bing","id":"way/169071996"},"geometry":{"type":"Polygon","coordinates":[[[139.7599272,35.7150938],[139.7599924,35.715107],[139.7600098,35.7151016],[139.7600233,35.7150918],[139.7600031,35.7151691],[139.7599844,35.7151506],[139.7599656,35.715143],[139.7599163,35.7151321],[139.7599272,35.7150938]]]}},{"type":"Feature","id":"way/169074044","properties":{"building":"yes","source":"Bing","id":"way/169074044"},"geometry":{"type":"Polygon","coordinates":[[[139.7598741,35.7153105],[139.7598566,35.7153676],[139.7596611,35.715328],[139.7596536,35.7153527],[139.7595313,35.7153279],[139.7595564,35.7152462],[139.7598741,35.7153105]]]}},{"type":"Feature","id":"way/169074047","properties":{"building":"yes","source":"Bing","id":"way/169074047"},"geometry":{"type":"Polygon","coordinates":[[[139.7603048,35.7153719],[139.7602901,35.7154206],[139.7602141,35.7154082],[139.7602083,35.7154272],[139.7601767,35.7154213],[139.7601909,35.7153749],[139.7602144,35.7153784],[139.7602217,35.7153575],[139.7603048,35.7153719]]]}},{"type":"Feature","id":"way/169074048","properties":{"building":"yes","source":"Bing","id":"way/169074048"},"geometry":{"type":"Polygon","coordinates":[[[139.7601781,35.7153555],[139.7601631,35.715411],[139.7599621,35.7153753],[139.7599771,35.7153197],[139.7601781,35.7153555]]]}},{"type":"Feature","id":"way/169074049","properties":{"building":"yes","source":"Bing","id":"way/169074049"},"geometry":{"type":"Polygon","coordinates":[[[139.7603694,35.715395],[139.7603533,35.7154392],[139.7603106,35.7154289],[139.7603267,35.7153847],[139.7603694,35.715395]]]}},{"type":"Feature","id":"way/174315798","properties":{"building":"yes","source":"Bing","id":"way/174315798"},"geometry":{"type":"Polygon","coordinates":[[[139.7630045,35.7147615],[139.763226,35.7146513],[139.7632783,35.7147206],[139.7630567,35.7148308],[139.7630045,35.7147615]]]}},{"type":"Feature","id":"way/174315817","properties":{"building":"construction","check_date":"2025-11-14","name":"(仮称)ダイバーシティ＆インクルージョン棟(A棟)","opening_date":"2026-02-28","source":"Bing","id":"way/174315817"},"geometry":{"type":"Polygon","coordinates":[[[139.7631562,35.7143124],[139.7631842,35.7142088],[139.7636802,35.714297],[139.7637057,35.7142857],[139.763793,35.7143013],[139.7637609,35.71442],[139.7631562,35.7143124]]]}},{"type":"Feature","id":"way/174315889","properties":{"building":"yes","source":"Bing","id":"way/174315889"},"geometry":{"type":"Polygon","coordinates":[[[139.7633,35.7144939],[139.7633298,35.7143944],[139.7635474,35.7144372],[139.7635176,35.7145367],[139.7633,35.7144939]]]}},{"type":"Feature","id":"way/174315924","properties":{"building":"yes","source":"Bing","id":"way/174315924"},"geometry":{"type":"Polygon","coordinates":[[[139.7633135,35.7147348],[139.763217,35.7146178],[139.7633875,35.7145331],[139.7634292,35.7145884],[139.7635003,35.7145513],[139.7635485,35.7146123],[139.7633135,35.7147348]]]}},{"type":"Feature","id":"way/224463862","properties":{"building":"residential","building:levels":"6","id":"way/224463862"},"geometry":{"type":"Polygon","coordinates":[[[139.7667543,35.7127876],[139.7667495,35.7126315],[139.7668395,35.7126296],[139.7668392,35.7126196],[139.7668748,35.7126189],[139.767309,35.71261],[139.7673102,35.7126488],[139.7673368,35.7126482],[139.7673385,35.7127023],[139.7673116,35.7127028],[139.7673139,35.7127762],[139.7667543,35.7127876]]]}},{"type":"Feature","id":"way/224464102","properties":{"building":"residential","name":"池ノ端宿舎","id":"way/224464102"},"geometry":{"type":"Polygon","coordinates":[[[139.7675835,35.7119144],[139.7674864,35.711916],[139.7674762,35.7115143],[139.7675733,35.7115127],[139.7675835,35.7119144]]]}},{"type":"Feature","id":"way/224468749","properties":{"building":"kindergarten","building:levels":"2","roof:levels":"1","roof:shape":"flat","id":"way/224468749"},"geometry":{"type":"Polygon","coordinates":[[[139.7665761,35.7105464],[139.7665771,35.7106165],[139.7664503,35.7106179],[139.7664496,35.710574],[139.7661446,35.7105771],[139.7661427,35.710459],[139.7664925,35.7104554],[139.766494,35.7105472],[139.7665761,35.7105464]]]}},{"type":"Feature","id":"way/224468776","properties":{"building":"university","name":"東洋文化研究所","name:en":"Institute of Advanced Studies on Asia","source":"survey","wikidata":"Q11524691","wikipedia":"ja:東京大学東洋文化研究所","id":"way/224468776"},"geometry":{"type":"Polygon","coordinates":[[[139.7611434,35.7087783],[139.7615013,35.7088402],[139.7614785,35.7089272],[139.7615192,35.7089342],[139.7615113,35.7089647],[139.7615032,35.7089956],[139.7614625,35.7089885],[139.761443,35.7090628],[139.761085,35.7090009],[139.7611434,35.7087783]]]}},{"type":"Feature","id":"way/224468777","properties":{"building":"yes","name":"懐徳館","name:en":"Kai-Toku-Kan","name:ja":"懐徳館","id":"way/224468777"},"geometry":{"type":"Polygon","coordinates":[[[139.7619206,35.7087585],[139.7618679,35.7087507],[139.7618956,35.7086266],[139.7620935,35.7086557],[139.762086,35.7086892],[139.7620677,35.7086865],[139.7620555,35.7087412],[139.7620096,35.7087345],[139.7620027,35.7087652],[139.7619891,35.7087632],[139.7619797,35.7088057],[139.7619122,35.7087958],[139.7619206,35.7087585]]]}},{"type":"Feature","id":"way/224469587","properties":{"building":"residential","name":"看護師宿舎5号棟","name:en":"Nurse's Living Quarter 5","id":"way/224469587"},"geometry":{"type":"Polygon","coordinates":[[[139.7673576,35.7117843],[139.767145,35.7117896],[139.7671446,35.7117781],[139.7670794,35.7117797],[139.7670725,35.7115976],[139.7673502,35.7115907],[139.7673576,35.7117843]]]}},{"type":"Feature","id":"way/224470206","properties":{"building":"university","building:levels":"6","name":"医学部生命科学実験棟","name:en":"Life Science Building","name:ja":"医学部生命科学実験棟","roof:levels":"1","id":"way/224470206"},"geometry":{"type":"Polygon","coordinates":[[[139.7628209,35.7098744],[139.7626194,35.7098389],[139.7626414,35.7097563],[139.7626096,35.7097507],[139.7626802,35.7094862],[139.762712,35.7094918],[139.762734,35.7094094],[139.7629356,35.7094449],[139.7628209,35.7098744]]]}},{"type":"Feature","id":"way/224475201","properties":{"building":"university","building:levels":"3","building:levels:underground":"2","name":"ダイワユビキタス学術研究館","name:en":"Daiwa Ubiquitous Computing Research Building","name:es":"Edificio de investigación de computación ubicua de Daiwa","name:ja":"ダイワユビキタス学術研究館","id":"way/224475201"},"geometry":{"type":"Polygon","coordinates":[[[139.762593,35.7083345],[139.7626224,35.7080632],[139.7625995,35.7080275],[139.7626214,35.7078251],[139.7627521,35.7078344],[139.7626972,35.7083419],[139.762593,35.7083345]]]}},{"type":"Feature","id":"way/224477203","properties":{"building":"university","building:levels":"4","name":"法学政治学系総合研究棟","name:ja":"法学政治学系総合研究棟","roof:shape":"flat","source":"survey","id":"way/224477203"},"geometry":{"type":"Polygon","coordinates":[[[139.7596851,35.7127032],[139.7597576,35.7124414],[139.7598298,35.7124546],[139.7598437,35.7124046],[139.7597711,35.7123913],[139.7598433,35.7121309],[139.759962,35.7121526],[139.7598035,35.7127248],[139.7596851,35.7127032]]]}},{"type":"Feature","id":"way/224481466","properties":{"building":"university","building:levels":"7","name":"医学部3号館","name:en":"Faculty of Medicine Building 3","id":"way/224481466"},"geometry":{"type":"Polygon","coordinates":[[[139.7621936,35.7092056],[139.7622405,35.709027],[139.7629124,35.7091511],[139.7628574,35.7093232],[139.7621936,35.7092056]]]}},{"type":"Feature","id":"way/224481467","properties":{"building":"university","building:levels":"6","name":"医学部3号館別棟","name:en":"Faculty of Medicine Building 3 Annex","id":"way/224481467"},"geometry":{"type":"Polygon","coordinates":[[[139.7622444,35.7089876],[139.7623025,35.7087833],[139.7623323,35.7087888],[139.7623371,35.7087719],[139.7623493,35.7087742],[139.7623537,35.7087586],[139.7625401,35.7087936],[139.7625349,35.7088119],[139.7625675,35.708818],[139.762554,35.7088654],[139.762525,35.70886],[139.7624843,35.7090032],[139.7624219,35.7089915],[139.7624139,35.7090195],[139.7622444,35.7089876]]]}},{"type":"Feature","id":"way/224481468","properties":{"building":"university","name":"医学部5号館","name:en":"Faculty of Medicine Building 5","id":"way/224481468"},"geometry":{"type":"Polygon","coordinates":[[[139.762954,35.7086462],[139.7629587,35.7085217],[139.7634939,35.708535],[139.7634892,35.7086595],[139.762954,35.7086462]]]}},{"type":"Feature","id":"way/224481812","properties":{"building":"yes","name":"法学部4号館","name:en":"Faculty of Law Building 4","id":"way/224481812"},"geometry":{"type":"Polygon","coordinates":[[[139.7600447,35.7123216],[139.7601323,35.711985],[139.760138,35.7119633],[139.760278,35.7119873],[139.7602227,35.7121997],[139.7602104,35.7122468],[139.760184,35.7122426],[139.7601775,35.7122653],[139.7601569,35.7123409],[139.7601365,35.7123374],[139.7600447,35.7123216]]]}},{"type":"Feature","id":"way/224633163","properties":{"building":"university","building:levels":"7","name":"文学部3号館","name:ja":"文学部3号館","id":"way/224633163"},"geometry":{"type":"Polygon","coordinates":[[[139.7610449,35.7123007],[139.7610808,35.7121702],[139.7611156,35.7121765],[139.7612148,35.7121946],[139.7613044,35.7122109],[139.7613546,35.71222],[139.7613186,35.7123505],[139.7611785,35.712325],[139.7610793,35.712307],[139.7610449,35.7123007]]]}},{"type":"Feature","id":"way/228333558","properties":{"branch":"東京大学安田講堂店","brand":"LAWSON","brand:en":"LAWSON","brand:ja":"ローソン","brand:wikidata":"Q1557223","brand:wikipedia":"ja:ローソン","building":"retail","building:levels":"1","check_date":"2023-03-04","name":"ローソン","name:en":"Lawson","name:fr":"Lawson","name:ja":"ローソン","name:ja_rm":"Rōson","name:ko":"로손","opening_hours":"24/7","shop":"convenience","wheelchair":"yes","id":"way/228333558"},"geometry":{"type":"Polygon","coordinates":[[[139.7620262,35.7138209],[139.7620502,35.7137324],[139.7622855,35.7137748],[139.7622614,35.7138633],[139.7620262,35.7138209]]]}},{"type":"Feature","id":"way/240568923","properties":{"building":"residential","id":"way/240568923"},"geometry":{"type":"Polygon","coordinates":[[[139.7669614,35.7123681],[139.7669862,35.7123677],[139.7669878,35.7124292],[139.7669646,35.7124296],[139.7669655,35.7124655],[139.7667442,35.7124691],[139.7667401,35.7123019],[139.7669597,35.7122983],[139.7669614,35.7123681]]]}},{"type":"Feature","id":"way/240568924","properties":{"building":"residential","name":"看護師宿舎4号棟","name:en":"Nurse's Living Quarter 4","name:ja":"看護師宿舎4号棟","id":"way/240568924"},"geometry":{"type":"Polygon","coordinates":[[[139.7670211,35.7124004],[139.7670436,35.7123998],[139.7670385,35.7122671],[139.7673729,35.7122585],[139.7673744,35.7122988],[139.7674048,35.712298],[139.767407,35.7123544],[139.7673786,35.7123552],[139.7673819,35.7124422],[139.7670231,35.7124514],[139.7670211,35.7124004]]]}},{"type":"Feature","id":"way/240754156","properties":{"building":"retail","building:levels":"1","name":"東京大学コミュニケーションセンター","name:en":"Todai Souvenir Shop","name:ja":"東京大学コミュニケーションセンター","name:zh":"东大纪念品商店","shop":"gift","wheelchair":"yes","wheelchair:description":"Shop","id":"way/240754156"},"geometry":{"type":"Polygon","coordinates":[[[139.7600871,35.7110087],[139.7601249,35.7108647],[139.7602837,35.7108922],[139.7602544,35.7110037],[139.7601968,35.7109937],[139.7601882,35.7110262],[139.7600871,35.7110087]]]}},{"type":"Feature","id":"way/240756007","properties":{"building":"university","building:levels":"1","name":"福武ホール","name:en":"Fukutake Hall","name:ja":"福武ホール","roof:shape":"flat","source":"survey","id":"way/240756007"},"geometry":{"type":"Polygon","coordinates":[[[139.7602348,35.7110658],[139.7600153,35.7119095],[139.759845,35.7118782],[139.7600789,35.7110384],[139.7602348,35.7110658]]]}},{"type":"Feature","id":"way/240756420","properties":{"addr:postcode":"113-0033","building":"university","name":"東京大学大学院情報学環・学際情報学府","name:en":"Graduate School of Interdisciplinary Information Studies, the University of Tokyo","name:ru":"Межфакультетская инициатива в области информационных наук и Центр междисциплинарных информационных наук при аспирантуре Токийского университета","operator":"東京大学","source":"bing and survey","id":"way/240756420"},"geometry":{"type":"Polygon","coordinates":[[[139.7607726,35.7114562],[139.7608043,35.7113385],[139.761013,35.7113754],[139.7611142,35.7113934],[139.7612886,35.7114243],[139.761217,35.7116904],[139.7611962,35.7117679],[139.7610367,35.7117397],[139.7610974,35.7115138],[139.7609872,35.7114942],[139.7607726,35.7114562]]]}},{"type":"Feature","id":"way/240756591","properties":{"addr:postcode":"113-0033","building":"university","name":"東京大学社会科学研究所","name:en":"Institute of Social Science, the University of Tokyo","name:ja":"東京大学社会科学研究所","name:ru":"Токийский университет, Институт обществознания","operator":"東京大学","id":"way/240756591"},"geometry":{"type":"Polygon","coordinates":[[[139.7611142,35.7113934],[139.7611335,35.7113214],[139.7610323,35.7113035],[139.761013,35.7113754],[139.7608043,35.7113385],[139.7607142,35.7113225],[139.7607343,35.7112477],[139.7606257,35.7112285],[139.7606604,35.7110991],[139.7611795,35.7111911],[139.7612216,35.7110346],[139.761355,35.7110582],[139.7613855,35.7110636],[139.7612886,35.7114243],[139.7611142,35.7113934]]]}},{"type":"Feature","id":"way/240756689","properties":{"addr:postcode":"113-0033","building":"university","name":"東京大学教育学研究科・教育学部","name:en":"Graduate School of Education / Faculty of Education","name:ja":"東京大学教育学研究科・教育学部","name:ru":"Токийский университет, Институт педагогики и Педагогический факультет","operator":"東京大学","id":"way/240756689"},"geometry":{"type":"Polygon","coordinates":[[[139.761355,35.7110582],[139.7612216,35.7110346],[139.76105,35.7110042],[139.7610232,35.7111039],[139.7608462,35.7110726],[139.7608733,35.7109719],[139.7607027,35.7109417],[139.7605747,35.710919],[139.7606096,35.7107891],[139.7613902,35.7109274],[139.761355,35.7110582]]]}},{"type":"Feature","id":"way/240756694","properties":{"building":"yes","genus":"Wisteria","genus:ja":"フジ属","layer":"1","name":"藤棚","name:en":"Wisteria","name:ja":"藤棚","roof:material":"plants","source":"survey","id":"way/240756694"},"geometry":{"type":"Polygon","coordinates":[[[139.7598986,35.712102],[139.7599131,35.7120532],[139.7598904,35.7120487],[139.7599017,35.7120104],[139.7599229,35.7120144],[139.7599383,35.7119642],[139.7600037,35.7119759],[139.7599872,35.7120276],[139.7600046,35.7120309],[139.7599928,35.7120684],[139.7599766,35.7120656],[139.7599624,35.7121144],[139.7598986,35.712102]]]}},{"type":"Feature","id":"way/240758655","properties":{"addr:postcode":"113-0033","amenity":"library","building":"university","name":"東京大学総合図書館","name:en":"University of Tokyo General Library","name:es":"Biblioteca general de la Universidad de Tokio","name:ja":"東京大学総合図書館","name:ru":"Сводная библиотека Токийского университета","website":"https://www.lib.u-tokyo.ac.jp/ja","wheelchair":"yes","wikidata":"Q17222926","wikipedia":"ja:東京大学総合図書館","id":"way/240758655"},"geometry":{"type":"Polygon","coordinates":[[[139.7611962,35.7117679],[139.7611557,35.7119185],[139.7611361,35.7119151],[139.7610988,35.7120537],[139.7606923,35.7119816],[139.7603103,35.7119139],[139.7603477,35.7117747],[139.760319,35.7117696],[139.7603528,35.7116439],[139.7603975,35.7114774],[139.7605514,35.7115047],[139.7604932,35.7117213],[139.7605974,35.7117398],[139.7606781,35.7114395],[139.7607726,35.7114562],[139.7609872,35.7114942],[139.7609003,35.7118175],[139.7610106,35.711837],[139.7610367,35.7117397],[139.7611962,35.7117679]]]}},{"type":"Feature","id":"way/240758876","properties":{"addr:postcode":"113-0033","building":"university","building:levels":"5","name":"東京大学史料編纂所","name:en":"Historiographical Institute, the University of Tokyo","name:ja":"東京大学史料編纂所","name:ru":"Токийский университет, Институт историографии","website":"https://www.hi.u-tokyo.ac.jp/","wikidata":"Q11524667","wikipedia":"ja:東京大学史料編纂所","id":"way/240758876"},"geometry":{"type":"Polygon","coordinates":[[[139.7607027,35.7109417],[139.7606604,35.7110991],[139.7606257,35.7112285],[139.7605514,35.7115047],[139.7603975,35.7114774],[139.7605489,35.7109144],[139.7605747,35.710919],[139.7607027,35.7109417]]]}},{"type":"Feature","id":"way/240891310","properties":{"access":"permissive","addr:city":"文京区","addr:housename":"赤門","addr:province":"東京都","barrier":"gate","bicycle":"yes","building":"yes","building:levels":"1","foot":"yes","historic":"heritage","motor_vehicle":"no","name":"赤門","name:en":"Red Gate","name:fr":"Porte Rouge","name:ja":"赤門","name:ja-Hira":"あかもん","name:ja-Latn":"Akamon","old_name":"Goshuden-mon","roof:shape":"gabled","source":"survey","tourism":"attraction","wheelchair":"yes","wikidata":"Q48807898","wikimedia_commons":"Category:Akamon, University of Tokyo","wikipedia":"ja:御守殿","id":"way/240891310"},"geometry":{"type":"Polygon","coordinates":[[[139.7604283,35.7104927],[139.7604012,35.7106057],[139.760371,35.7107318],[139.7603107,35.7107223],[139.7602792,35.7107173],[139.7603071,35.7106009],[139.7603365,35.7104782],[139.7603711,35.7104836],[139.7604283,35.7104927]]]}},{"type":"Feature","id":"way/252220901","properties":{"building":"yes","source":"GSI/KIBAN 2500; NARO","source_ref":"http://wiki.osm.org/wiki/GSI_KIBAN","id":"way/252220901"},"geometry":{"type":"Polygon","coordinates":[[[139.76164,35.7086688],[139.76165,35.7086381],[139.7617589,35.7086615],[139.761749,35.7086922],[139.76164,35.7086688]]]}},{"type":"Feature","id":"way/252221031","properties":{"building":"yes","source":"GSI/KIBAN 2500; NARO","source_ref":"http://wiki.osm.org/wiki/GSI_KIBAN","id":"way/252221031"},"geometry":{"type":"Polygon","coordinates":[[[139.7615894,35.7087827],[139.7616119,35.7087875],[139.7616051,35.7088085],[139.7615825,35.7088036],[139.7615894,35.7087827]]]}},{"type":"Feature","id":"way/252221035","properties":{"building":"yes","source":"GSI/KIBAN 2500; NARO","source_ref":"http://wiki.osm.org/wiki/GSI_KIBAN","id":"way/252221035"},"geometry":{"type":"Polygon","coordinates":[[[139.7617103,35.7086184],[139.7617194,35.7085904],[139.7617761,35.7086026],[139.7617671,35.7086305],[139.7617103,35.7086184]]]}},{"type":"Feature","id":"way/252221145","properties":{"building":"greenhouse","source":"GSI/KIBAN 2500; NARO","source_ref":"http://wiki.osm.org/wiki/GSI_KIBAN","id":"way/252221145"},"geometry":{"type":"Polygon","coordinates":[[[139.7615144,35.7087411],[139.7615325,35.7086851],[139.7617704,35.7087362],[139.7617522,35.7087921],[139.7615144,35.7087411]]]}},{"type":"Feature","id":"way/252221176","properties":{"building":"yes","source":"GSI/KIBAN 2500; NARO","source_ref":"http://wiki.osm.org/wiki/GSI_KIBAN","id":"way/252221176"},"geometry":{"type":"Polygon","coordinates":[[[139.7616276,35.7086707],[139.7615108,35.7086497],[139.7615427,35.708533],[139.7616595,35.7085541],[139.7616276,35.7086707]]]}},{"type":"Feature","id":"way/252221307","properties":{"building":"yes","source":"GSI/KIBAN 2500; NARO","source_ref":"http://wiki.osm.org/wiki/GSI_KIBAN","id":"way/252221307"},"geometry":{"type":"Polygon","coordinates":[[[139.7616916,35.7088291],[139.7616224,35.7088143],[139.7616343,35.7087778],[139.7617035,35.7087927],[139.7616916,35.7088291]]]}},{"type":"Feature","id":"way/252221334","properties":{"building":"yes","source":"GSI/KIBAN 2500; NARO","source_ref":"http://wiki.osm.org/wiki/GSI_KIBAN","id":"way/252221334"},"geometry":{"type":"Polygon","coordinates":[[[139.7616249,35.7087723],[139.7616209,35.7087847],[139.7615901,35.7087781],[139.7615941,35.7087657],[139.7616249,35.7087723]]]}},{"type":"Feature","id":"way/309004367","properties":{"building":"university","building:levels":"5","name":"産学連携プラザ","id":"way/309004367"},"geometry":{"type":"Polygon","coordinates":[[[139.7624543,35.7086861],[139.7624626,35.7086118],[139.7624998,35.7086145],[139.7625491,35.7084984],[139.7625671,35.7084997],[139.762581,35.7083748],[139.7627096,35.7083842],[139.7626743,35.7087022],[139.7624543,35.7086861]]]}},{"type":"Feature","id":"way/309011796","properties":{"building":"university","building:levels":"7","name":"アントレプレナープラザ","name:en":"Entrepreneur Plaza","id":"way/309011796"},"geometry":{"type":"Polygon","coordinates":[[[139.7630652,35.708817],[139.7627184,35.7087544],[139.7627741,35.7085513],[139.7628919,35.7085726],[139.7628665,35.7086652],[139.7630955,35.7087066],[139.7630652,35.708817]]]}},{"type":"Feature","id":"way/368510761","properties":{"building":"university","name":"学生支援センター","name:ja":"学生支援センター","id":"way/368510761"},"geometry":{"type":"Polygon","coordinates":[[[139.762879,35.7126666],[139.7637025,35.7126484],[139.7637055,35.7127392],[139.762882,35.7127574],[139.762879,35.7126666]]]}},{"type":"Feature","id":"way/458548981","properties":{"building":"university","building:levels":"2","name":"伊藤国際学術研究センター","name:en":"Ito International Research Center","name:ja":"伊藤国際学術研究センター","roof:levels":"1","source":"survey","id":"way/458548981"},"geometry":{"type":"Polygon","coordinates":[[[139.7602636,35.7103567],[139.760337,35.7101001],[139.7605544,35.7101411],[139.760556,35.7101356],[139.7605903,35.7100155],[139.7606268,35.7098879],[139.7607305,35.7099075],[139.7606939,35.7100352],[139.7606605,35.710152],[139.7605962,35.7101398],[139.7605869,35.7101721],[139.7605202,35.7104051],[139.7602636,35.7103567]]]}},{"type":"Feature","id":"way/458704423","properties":{"building":"university","building:levels":"2","name":"化学東館","name:en":"Chemistry East Building","name:ja":"化学東館","id":"way/458704423"},"geometry":{"type":"Polygon","coordinates":[[[139.7637197,35.7133871],[139.7637115,35.7130662],[139.7636405,35.7130064],[139.7632478,35.713014],[139.7632439,35.71288],[139.7637169,35.7128709],[139.7637495,35.7128424],[139.7639176,35.7129693],[139.7638797,35.7130024],[139.7638894,35.7133843],[139.7637197,35.7133871]]]}},{"type":"Feature","id":"way/458704424","properties":{"building":"university","building:levels":"5","name":"化学本館","name:en":"Chemistry Main Building","name:ja":"化学本館","id":"way/458704424"},"geometry":{"type":"Polygon","coordinates":[[[139.7632437,35.7130519],[139.7628554,35.7130591],[139.7628504,35.7128828],[139.7632387,35.7128756],[139.7632437,35.7130519]]]}},{"type":"Feature","id":"way/458704425","properties":{"building":"university","building:levels":"6","name":"化学西館","name:en":"Chemistry West Building","name:ja":"化学西館","id":"way/458704425"},"geometry":{"type":"Polygon","coordinates":[[[139.7628125,35.7133179],[139.7628132,35.7130727],[139.7630576,35.7130731],[139.7630572,35.7132174],[139.7630319,35.7132401],[139.7630307,35.7133955],[139.7629179,35.7133953],[139.7629181,35.713318],[139.7628125,35.7133179]]]}},{"type":"Feature","id":"way/458704426","properties":{"building":"university","building:levels":"7","name":"理学部4号館","name:en":"Faculty of Science Building 4","id":"way/458704426"},"geometry":{"type":"Polygon","coordinates":[[[139.7630319,35.7132401],[139.7633477,35.7132413],[139.7633471,35.7134024],[139.7630307,35.713401],[139.7630307,35.7133955],[139.7630319,35.7132401]]]}},{"type":"Feature","id":"way/458704427","properties":{"building":"university","id":"way/458704427"},"geometry":{"type":"Polygon","coordinates":[[[139.7632502,35.7132395],[139.7632459,35.7130598],[139.7633996,35.7130574],[139.7634029,35.7131931],[139.7633423,35.7131941],[139.7633433,35.713238],[139.7632502,35.7132395]]]}},{"type":"Feature","id":"way/458704428","properties":{"building":"university","building:levels":"7","name":"理学部7号館","name:en":"Faculty of Science Building 7","id":"way/458704428"},"geometry":{"type":"Polygon","coordinates":[[[139.7633471,35.7134024],[139.7633477,35.7132413],[139.7637129,35.7132421],[139.7637124,35.7134032],[139.7633471,35.7134024]]]}},{"type":"Feature","id":"way/462830897","properties":{"building":"hospital","building:levels":"4","name":"外来診療棟","name:en":"Outpatient Care Building","name:ja":"外来診療棟","id":"way/462830897"},"geometry":{"type":"Polygon","coordinates":[[[139.7642219,35.7108489],[139.7641969,35.7108496],[139.7641929,35.7107509],[139.7643176,35.7107476],[139.764318,35.7107577],[139.764643,35.7107491],[139.7647156,35.7107472],[139.7647151,35.7107355],[139.7648501,35.7107319],[139.764851,35.7107542],[139.7648733,35.7107536],[139.7648768,35.7108389],[139.7648238,35.7108403],[139.76483,35.710993],[139.7649107,35.7109909],[139.7649125,35.7110357],[139.7648299,35.7110379],[139.7648424,35.7113449],[139.7648809,35.7113439],[139.7648832,35.7114003],[139.7649374,35.7113997],[139.7649965,35.7113992],[139.764998,35.7114444],[139.7648889,35.7114459],[139.7648916,35.7115129],[139.7647577,35.7115165],[139.764759,35.7115495],[139.7645083,35.7115561],[139.7645066,35.7115143],[139.7642207,35.7115219],[139.7642166,35.7114189],[139.7642447,35.7114181],[139.7642219,35.7108489]]]}},{"type":"Feature","id":"way/462830898","properties":{"building":"hospital","building:levels":"9","name":"中央診療棟2","name:en":"Central Care Building 2","name:ja":"中央診療棟2","id":"way/462830898"},"geometry":{"type":"Polygon","coordinates":[[[139.7649049,35.7107161],[139.7649996,35.7107138],[139.7650002,35.7107299],[139.7654199,35.71072],[139.765737,35.7107125],[139.7657364,35.7106956],[139.7658354,35.7106932],[139.7658367,35.7107263],[139.7658445,35.7109207],[139.7658505,35.7110722],[139.7657675,35.7110744],[139.7655773,35.7110788],[139.7655759,35.7110247],[139.7654808,35.7110272],[139.7654826,35.7110742],[139.7652793,35.7110794],[139.7652773,35.7110282],[139.7651568,35.7110313],[139.7651581,35.7110657],[139.765028,35.7110661],[139.7649779,35.7110673],[139.7649491,35.711071],[139.7649476,35.7110351],[139.7649125,35.7110357],[139.7649107,35.7109909],[139.7649095,35.7109128],[139.7649787,35.7109112],[139.7649759,35.7108371],[139.7649095,35.7108388],[139.7649049,35.7107161]]]}},{"type":"Feature","id":"way/462830899","properties":{"building":"hospital","building:levels":"5","name":"中央診療棟1","name:en":"Central Care Building 1","name:ja":"中央診療棟1","id":"way/462830899"},"geometry":{"type":"Polygon","coordinates":[[[139.7649779,35.7110673],[139.765028,35.7110661],[139.7650289,35.7110912],[139.7655773,35.7110788],[139.7657675,35.7110744],[139.7657683,35.7110964],[139.7658322,35.7110949],[139.7658348,35.7111685],[139.7657822,35.7111698],[139.7657872,35.7113097],[139.7658711,35.7113077],[139.7658745,35.7114042],[139.765875,35.7114185],[139.7658269,35.7114196],[139.76583,35.7115131],[139.7657901,35.711514],[139.7657891,35.7114843],[139.7656953,35.7114864],[139.7656946,35.7114641],[139.7656136,35.7114659],[139.7656123,35.7114281],[139.7654383,35.7114319],[139.7654388,35.7114476],[139.7653516,35.7114496],[139.765351,35.7114326],[139.765267,35.7114344],[139.7652684,35.7114747],[139.7650925,35.7114787],[139.7650281,35.7114801],[139.7650269,35.7114437],[139.764998,35.7114444],[139.7649965,35.7113992],[139.7649374,35.7113997],[139.764935,35.7113291],[139.7649934,35.7113278],[139.7649887,35.7111908],[139.7649341,35.7111921],[139.7649314,35.7111142],[139.7649794,35.7111131],[139.7649779,35.7110673]]]}},{"type":"Feature","id":"way/462830900","properties":{"building":"hospital","building:levels":"15","name":"入院棟A","name:en":"Inpatients' Building A","name:ja":"入院棟A","id":"way/462830900"},"geometry":{"type":"Polygon","coordinates":[[[139.7658367,35.7107263],[139.7660658,35.7107213],[139.7660929,35.7106981],[139.7661356,35.7106616],[139.766179,35.7106244],[139.7662222,35.7106576],[139.7662679,35.7106928],[139.7666569,35.7109922],[139.7666604,35.711087],[139.7662092,35.7114714],[139.7661154,35.7113988],[139.7658745,35.7114042],[139.7658711,35.7113077],[139.7658675,35.7112118],[139.7660736,35.7112068],[139.7660628,35.7109141],[139.7658445,35.7109207],[139.7658367,35.7107263]]]}},{"type":"Feature","id":"way/463106583","properties":{"building":"yes","id":"way/463106583"},"geometry":{"type":"Polygon","coordinates":[[[139.76454,35.7124285],[139.7645371,35.7123396],[139.7647161,35.7123358],[139.764719,35.7124247],[139.76454,35.7124285]]]}},{"type":"Feature","id":"way/463106584","properties":{"building":"university","name":"分子ライフイノベーション棟","name:en":"Molecular & Life Innovation Building","name:ja":"分子ライフイノベーション棟","note":"new building","id":"way/463106584"},"geometry":{"type":"Polygon","coordinates":[[[139.7658703,35.7128952],[139.7658646,35.7127178],[139.7658874,35.7127173],[139.7660547,35.7127137],[139.7660507,35.7125904],[139.7663228,35.7125846],[139.7663326,35.7128853],[139.7658703,35.7128952]]]}},{"type":"Feature","id":"way/463106585","properties":{"building":"hospital","name":"臨床試験棟","name:en":"Clinical Research Building","id":"way/463106585"},"geometry":{"type":"Polygon","coordinates":[[[139.7665356,35.7121682],[139.7665334,35.7121063],[139.7665671,35.7121055],[139.7665625,35.7119718],[139.7667213,35.7119682],[139.7667271,35.7121374],[139.7666374,35.7121394],[139.7666383,35.7121659],[139.7665356,35.7121682]]]}},{"type":"Feature","id":"way/463106586","properties":{"building":"hospital","building:levels":"9","name":"臨床研究棟A","name:en":"Clinical Research Building A","name:es":"Edificio de Investigación Clínica A","name:ja":"臨床研究棟A","note":"new building","id":"way/463106586"},"geometry":{"type":"Polygon","coordinates":[[[139.7649663,35.7126789],[139.7649567,35.7123777],[139.7658145,35.7123596],[139.7658241,35.7126609],[139.7649663,35.7126789]]]}},{"type":"Feature","id":"way/463106587","properties":{"addr:block_number":"3","addr:city":"文京区","addr:housenumber":"1","addr:neighbourhood":"7","addr:postcode":"113-0033","addr:province":"東京都","addr:quarter":"本郷","amenity":"social_facility","building":"yes","fax":"+81 3 3812 9688","name":"ドナルド・マクドナルド・ハウス 東大","name:en":"Donald McDonald House TODAI","name:ja":"ドナルド・マクドナルド・ハウス 東大","opening_hours":"24/7","operator":"公益財団法人ドナルド・マクドナルド・ハウス・チャリティーズ・ジャパン","phone":"+81 3 3812 9877","social_facility":"shelter","social_facility:for":"diseased","website":"https://www.dmhcj.or.jp/jp-house/1600/","id":"way/463106587"},"geometry":{"type":"Polygon","coordinates":[[[139.766704,35.7128588],[139.7670889,35.7128481],[139.7670922,35.7129252],[139.7670155,35.7129273],[139.767017,35.7129606],[139.7667087,35.7129692],[139.766704,35.7128588]]]}},{"type":"Feature","id":"way/463106588","properties":{"building":"residential","id":"way/463106588"},"geometry":{"type":"Polygon","coordinates":[[[139.76679,35.712486],[139.7669684,35.7124811],[139.7669698,35.7125205],[139.7669844,35.7125245],[139.7669927,35.7125369],[139.7669933,35.712548],[139.7669852,35.712559],[139.7669719,35.7125636],[139.7669734,35.7126007],[139.766795,35.7126056],[139.76679,35.712486]]]}},{"type":"Feature","id":"way/463106589","properties":{"building":"yes","id":"way/463106589"},"geometry":{"type":"Polygon","coordinates":[[[139.7664815,35.7124143],[139.7664787,35.7123478],[139.7665961,35.7123445],[139.7665989,35.712411],[139.7664815,35.7124143]]]}},{"type":"Feature","id":"way/463106590","properties":{"addr:block_number":"3","addr:city":"文京区","addr:housenumber":"1","addr:neighbourhood":"7","addr:province":"東京都","addr:quarter":"本郷","building":"university","building:levels":"15","height":"75.5","name":"東京大学医学部附属病院新入院棟B","name:en":"Inpatients' Building B","name:ja":"東京大学医学部附属病院新入院棟B","start_date":"2018-01-05","id":"way/463106590"},"geometry":{"type":"Polygon","coordinates":[[[139.7658987,35.7118634],[139.7658847,35.7114958],[139.7661028,35.7114903],[139.766106,35.7115755],[139.7667571,35.7115591],[139.7667679,35.7118415],[139.7658987,35.7118634]]]}},{"type":"Feature","id":"way/463106593","properties":{"access":"customers","amenity":"parking","building":"yes","fee":"yes","parking":"multi-storey","id":"way/463106593"},"geometry":{"type":"Polygon","coordinates":[[[139.7649768,35.7118923],[139.7656943,35.7118749],[139.765705,35.7121643],[139.7650881,35.7121793],[139.7649875,35.7121817],[139.7649768,35.7118923]]]}},{"type":"Feature","id":"way/463106595","properties":{"building":"hospital","name":"東研究棟","name:en":"East Research Building","name:ja":"東研究棟","id":"way/463106595"},"geometry":{"type":"Polygon","coordinates":[[[139.7658622,35.7130164],[139.7658589,35.7129095],[139.7663444,35.7128994],[139.7663336,35.7125537],[139.7660289,35.71256],[139.7660303,35.7126021],[139.7658987,35.7126048],[139.7658969,35.7125462],[139.7658944,35.7124664],[139.7664892,35.7124541],[139.7665064,35.7130031],[139.7658622,35.7130164]]]}},{"type":"Feature","id":"way/464522326","properties":{"building":"yes","id":"way/464522326"},"geometry":{"type":"Polygon","coordinates":[[[139.7620529,35.7137007],[139.7620229,35.7138195],[139.7619727,35.7138116],[139.7619612,35.7137963],[139.7619895,35.7136895],[139.7620529,35.7137007]]]}},{"type":"Feature","id":"way/464899114","properties":{"building":"yes","id":"way/464899114"},"geometry":{"type":"Polygon","coordinates":[[[139.7637478,35.7127385],[139.7637459,35.7126771],[139.7637934,35.7126776],[139.763849,35.712628],[139.7638484,35.7125861],[139.7638758,35.7125856],[139.7638738,35.7125567],[139.7639213,35.7125557],[139.7639223,35.7126411],[139.7638108,35.7127372],[139.7637478,35.7127385]]]}},{"type":"Feature","id":"way/464899116","properties":{"building":"yes","id":"way/464899116"},"geometry":{"type":"Polygon","coordinates":[[[139.7629967,35.7126348],[139.762959,35.7126355],[139.7629584,35.712613],[139.7629523,35.7123927],[139.76299,35.712392],[139.7629967,35.7126348]]]}},{"type":"Feature","id":"way/466577756","properties":{"building":"yes","id":"way/466577756"},"geometry":{"type":"Polygon","coordinates":[[[139.7665659,35.7113832],[139.766533,35.7113759],[139.7665089,35.7113563],[139.7665002,35.7113295],[139.7665092,35.7113027],[139.7665334,35.7112832],[139.7665664,35.7112761],[139.7665994,35.7112834],[139.7666234,35.7113031],[139.7666321,35.7113299],[139.7666232,35.7113566],[139.7665989,35.7113761],[139.7665659,35.7113832]]]}},{"type":"Feature","id":"way/468349883","properties":{"bench":"yes","building":"roof","id":"way/468349883"},"geometry":{"type":"Polygon","coordinates":[[[139.764031,35.7111912],[139.7640249,35.711084],[139.7640638,35.7110825],[139.7640699,35.7111898],[139.764031,35.7111912]]]}},{"type":"Feature","id":"way/468349888","properties":{"building":"yes","id":"way/468349888"},"geometry":{"type":"Polygon","coordinates":[[[139.7626289,35.7109527],[139.7626368,35.7108968],[139.7627121,35.7109038],[139.7627042,35.7109598],[139.7626289,35.7109527]]]}},{"type":"Feature","id":"way/468349889","properties":{"building":"yes","id":"way/468349889"},"geometry":{"type":"Polygon","coordinates":[[[139.7627391,35.7109024],[139.7626738,35.7108964],[139.762661,35.7108833],[139.7626684,35.7108349],[139.7627093,35.7108381],[139.7627122,35.7108133],[139.762722,35.7107276],[139.7626845,35.7107249],[139.7626863,35.710713],[139.7627106,35.710696],[139.7627656,35.7106993],[139.7627504,35.7108162],[139.7627391,35.7109024]]]}},{"type":"Feature","id":"way/468349890","properties":{"building":"yes","id":"way/468349890"},"geometry":{"type":"Polygon","coordinates":[[[139.7628313,35.7109674],[139.762708,35.7109595],[139.762711,35.7109354],[139.762736,35.7109372],[139.7627462,35.7108568],[139.7628448,35.710864],[139.7628313,35.7109674]]]}},{"type":"Feature","id":"way/468349891","properties":{"building":"yes","id":"way/468349891"},"geometry":{"type":"Polygon","coordinates":[[[139.7624996,35.7110916],[139.7624868,35.7111793],[139.7624106,35.711172],[139.7624234,35.7110843],[139.7624996,35.7110916]]]}},{"type":"Feature","id":"way/468349901","properties":{"alt_name":"小島ホール","alt_name:en":"Kojima Hall","building":"university","building:levels":"5","name":"経済学研究科 学術交流棟","name:en":"Economics Research Annex","name:ja":"経済学研究科 学術交流棟","roof:levels":"1","roof:shape":"flat","id":"way/468349901"},"geometry":{"type":"Polygon","coordinates":[[[139.7604477,35.7098424],[139.7604847,35.7097039],[139.7607663,35.7097534],[139.7607293,35.709892],[139.7604477,35.7098424]]]}},{"type":"Feature","id":"way/468349905","properties":{"amenity":"police","building":"university","building:levels":"1","name":"守衛詰所","name:en":"Gatehouse","operator":"東京大学","id":"way/468349905"},"geometry":{"type":"Polygon","coordinates":[[[139.7605386,35.7107719],[139.7605533,35.7107093],[139.7605875,35.7107146],[139.7605728,35.7107772],[139.7605386,35.7107719]]]}},{"type":"Feature","id":"way/468358846","properties":{"building":"university","building:levels":"1","id":"way/468358846"},"geometry":{"type":"Polygon","coordinates":[[[139.7595982,35.713061],[139.7596114,35.7130116],[139.7596416,35.7130169],[139.7596991,35.7130271],[139.7596858,35.7130766],[139.7596249,35.7130658],[139.7595982,35.713061]]]}},{"type":"Feature","id":"way/468358847","properties":{"building":"university","building:levels":"1","id":"way/468358847"},"geometry":{"type":"Polygon","coordinates":[[[139.7596491,35.7128601],[139.7596624,35.7128106],[139.7596888,35.7128153],[139.75975,35.7128262],[139.7597367,35.7128756],[139.759679,35.7128654],[139.7596491,35.7128601]]]}},{"type":"Feature","id":"way/469377089","properties":{"building":"university","building:levels":"14","name":"国際学術総合研究棟","name:ja":"国際学術総合研究棟","roof:shape":"flat","start_date":"2017-08-30","id":"way/469377089"},"geometry":{"type":"Polygon","coordinates":[[[139.760821,35.7103585],[139.7608779,35.7101459],[139.7612296,35.7102088],[139.7611728,35.7104214],[139.760821,35.7103585]]]}},{"type":"Feature","id":"way/474302066","properties":{"building":"warehouse","building:levels":"1","id":"way/474302066"},"geometry":{"type":"Polygon","coordinates":[[[139.7622744,35.7129353],[139.7623204,35.7129339],[139.7623062,35.7129732],[139.7622652,35.7129648],[139.7622744,35.7129353]]]}},{"type":"Feature","id":"way/474302067","properties":{"building":"yes","id":"way/474302067"},"geometry":{"type":"Polygon","coordinates":[[[139.7622298,35.7130806],[139.7622525,35.7130116],[139.7625112,35.7130678],[139.7624885,35.7131368],[139.7622298,35.7130806]]]}},{"type":"Feature","id":"way/526170662","properties":{"building":"yes","id":"way/526170662"},"geometry":{"type":"Polygon","coordinates":[[[139.7646604,35.7137847],[139.7646646,35.7137491],[139.7646818,35.7137504],[139.7646829,35.7137408],[139.7647199,35.7137437],[139.7647206,35.7137377],[139.7647462,35.7137396],[139.7647402,35.7137908],[139.7646604,35.7137847]]]}},{"type":"Feature","id":"way/526170663","properties":{"building":"yes","id":"way/526170663"},"geometry":{"type":"Polygon","coordinates":[[[139.7643227,35.7140052],[139.7642882,35.713958],[139.7643348,35.7139355],[139.7643693,35.7139828],[139.7643227,35.7140052]]]}},{"type":"Feature","id":"way/526170664","properties":{"building":"yes","id":"way/526170664"},"geometry":{"type":"Polygon","coordinates":[[[139.7644558,35.7139421],[139.764387,35.7139753],[139.7643442,35.7139168],[139.764413,35.7138836],[139.7644558,35.7139421]]]}},{"type":"Feature","id":"way/526170665","properties":{"access":"private","building":"yes","name":"東大構内操車所","operator":"東京都交通局","id":"way/526170665"},"geometry":{"type":"Polygon","coordinates":[[[139.7642701,35.7133606],[139.7643046,35.7133607],[139.7643044,35.7133994],[139.7642699,35.7133992],[139.7642701,35.7133606]]]}},{"type":"Feature","id":"way/526170669","properties":{"building":"yes","id":"way/526170669"},"geometry":{"type":"Polygon","coordinates":[[[139.7649443,35.7135062],[139.7648746,35.7135078],[139.7648732,35.713466],[139.7649429,35.7134644],[139.7649443,35.7135062]]]}},{"type":"Feature","id":"way/526170672","properties":{"building":"university","building:levels":"6","name":"理学部1号館 東棟","name:en":"Faculty of Science Building 1 East Wing","name:ja":"理学部1号館 東棟","source":"survey","id":"way/526170672"},"geometry":{"type":"Polygon","coordinates":[[[139.7634798,35.7140565],[139.7634949,35.7140031],[139.7634412,35.7139931],[139.7633874,35.713983],[139.763395,35.713956],[139.7634501,35.7139663],[139.7635014,35.7139759],[139.7635958,35.713643],[139.7635426,35.7136331],[139.7634894,35.7136231],[139.7634968,35.7135971],[139.763554,35.7136078],[139.7636039,35.7136171],[139.7636203,35.7135591],[139.7638274,35.7135978],[139.7638162,35.7136372],[139.7638637,35.7136461],[139.7637453,35.7140634],[139.763697,35.7140544],[139.7636855,35.714095],[139.7634798,35.7140565]]]}},{"type":"Feature","id":"way/643413129","properties":{"building":"yes","id":"way/643413129"},"geometry":{"type":"Polygon","coordinates":[[[139.7616492,35.7112331],[139.7618708,35.7112736],[139.7618557,35.7113279],[139.7616342,35.7112873],[139.7616492,35.7112331]]]}},{"type":"Feature","id":"way/643413132","properties":{"building":"yes","building:levels":"1","name":"育徳堂","name:en":"Ikutokudo","name:ja":"育徳堂","roof:shape":"gabled","source":"survey","id":"way/643413132"},"geometry":{"type":"Polygon","coordinates":[[[139.761561,35.7115409],[139.7615946,35.7114197],[139.7618219,35.7114613],[139.7617883,35.7115825],[139.761561,35.7115409]]]}},{"type":"Feature","id":"way/690994046","properties":{"building":"university","id":"way/690994046"},"geometry":{"type":"Polygon","coordinates":[[[139.7632738,35.7102231],[139.7632836,35.7101344],[139.7633894,35.7101421],[139.7633796,35.7102308],[139.7632738,35.7102231]]]}},{"type":"Feature","id":"way/690994047","properties":{"building":"university","name":"薬学系研究科先端創薬棟","name:ja":"薬学系研究科先端創薬棟","id":"way/690994047"},"geometry":{"type":"Polygon","coordinates":[[[139.7634528,35.7101095],[139.7633322,35.710101],[139.7633376,35.7100506],[139.763316,35.7100491],[139.7633191,35.7100198],[139.7634613,35.7100298],[139.7634528,35.7101095]]]}},{"type":"Feature","id":"way/691001065","properties":{"building":"university","name":"環境安全研究センター","name:en":"Environmental Science Center","name:ja":"環境安全研究センター","id":"way/691001065"},"geometry":{"type":"Polygon","coordinates":[[[139.7653428,35.7133676],[139.765346,35.7134745],[139.7653839,35.7135198],[139.7654577,35.7134792],[139.7654516,35.713375],[139.765506,35.7133729],[139.7655108,35.7134537],[139.765555,35.713452],[139.7655574,35.7134926],[139.7655365,35.7134934],[139.765525,35.7135166],[139.7655357,35.7135293],[139.7652207,35.7137045],[139.7651672,35.7136411],[139.7652713,35.7135832],[139.7652477,35.7135552],[139.7651544,35.713607],[139.7651134,35.7135584],[139.7650837,35.7135749],[139.7651054,35.7136008],[139.7650006,35.713659],[139.7649455,35.7135937],[139.7650514,35.7135349],[139.7650603,35.7135454],[139.7650884,35.7135298],[139.7650823,35.7135227],[139.7650814,35.7134915],[139.7650418,35.7134923],[139.7650382,35.7133737],[139.7653428,35.7133676]]]}},{"type":"Feature","id":"way/691001066","properties":{"building":"university","id":"way/691001066"},"geometry":{"type":"Polygon","coordinates":[[[139.7651075,35.7133618],[139.7650609,35.7133631],[139.7650584,35.7133014],[139.7650362,35.713302],[139.765034,35.7132473],[139.7650668,35.7132464],[139.7650662,35.7132298],[139.765338,35.7132226],[139.7653399,35.7132698],[139.7653104,35.7132705],[139.7653123,35.7133162],[139.7651059,35.7133218],[139.7651075,35.7133618]]]}},{"type":"Feature","id":"way/754805816","properties":{"building":"yes","id":"way/754805816"},"geometry":{"type":"Polygon","coordinates":[[[139.7605318,35.7122322],[139.7605367,35.7122101],[139.7605491,35.7122114],[139.7605467,35.7122242],[139.7605805,35.7122289],[139.7605789,35.7122385],[139.7605318,35.7122322]]]}},{"type":"Feature","id":"way/754805817","properties":{"building":"yes","id":"way/754805817"},"geometry":{"type":"Polygon","coordinates":[[[139.760712,35.7122411],[139.7607088,35.7122594],[139.7606567,35.7122538],[139.7606584,35.7122444],[139.7606972,35.712248],[139.7606983,35.7122395],[139.760712,35.7122411]]]}},{"type":"Feature","id":"way/754805818","properties":{"building":"yes","id":"way/754805818"},"geometry":{"type":"Polygon","coordinates":[[[139.7605612,35.7121858],[139.7605508,35.7121844],[139.7605673,35.7121132],[139.7605788,35.7121146],[139.7605612,35.7121858]]]}},{"type":"Feature","id":"way/754805819","properties":{"building":"yes","id":"way/754805819"},"geometry":{"type":"Polygon","coordinates":[[[139.7605321,35.7121826],[139.7605224,35.7121812],[139.7605371,35.71211],[139.7605475,35.712112],[139.7605321,35.7121826]]]}},{"type":"Feature","id":"way/1240987429","properties":{"building":"yes","id":"way/1240987429"},"geometry":{"type":"Polygon","coordinates":[[[139.7631948,35.7094961],[139.7631704,35.7095824],[139.7631415,35.7095766],[139.7631673,35.7094903],[139.7631948,35.7094961]]]}},{"type":"Feature","id":"way/1240987430","properties":{"building":"yes","id":"way/1240987430"},"geometry":{"type":"Polygon","coordinates":[[[139.763234,35.7095271],[139.7632291,35.7095459],[139.7632536,35.709552],[139.7632402,35.709595],[139.7631868,35.709582],[139.7632046,35.7095206],[139.763234,35.7095271]]]}},{"type":"Feature","id":"way/1240987431","properties":{"building":"yes","id":"way/1240987431"},"geometry":{"type":"Polygon","coordinates":[[[139.7632638,35.7095643],[139.7632925,35.7095715],[139.7632843,35.7096008],[139.7632567,35.7095965],[139.7632638,35.7095643]]]}},{"type":"Feature","id":"way/1240987432","properties":{"building":"yes","id":"way/1240987432"},"geometry":{"type":"Polygon","coordinates":[[[139.7633012,35.7096304],[139.7632932,35.7096882],[139.7630859,35.7096702],[139.7630948,35.7096131],[139.7633012,35.7096304]]]}},{"type":"Feature","id":"way/1240987433","properties":{"building":"yes","id":"way/1240987433"},"geometry":{"type":"Polygon","coordinates":[[[139.7630645,35.7096218],[139.7630151,35.7096098],[139.7630329,35.7095517],[139.7630805,35.7095614],[139.7630645,35.7096218]]]}},{"type":"Feature","id":"way/1240987434","properties":{"building":"yes","id":"way/1240987434"},"geometry":{"type":"Polygon","coordinates":[[[139.7630116,35.7096947],[139.7629706,35.7097301],[139.7629453,35.709711],[139.7629858,35.7096774],[139.7630116,35.7096947]]]}},{"type":"Feature","id":"way/1379882965","properties":{"building":"yes","building:levels":"1","roof:shape":"gabled","id":"way/1379882965"},"geometry":{"type":"Polygon","coordinates":[[[139.7623929,35.7152419],[139.7623171,35.7151603],[139.7623807,35.7151213],[139.7624565,35.715203],[139.7623929,35.7152419]]]}},{"type":"Feature","id":"way/1389445694","properties":{"building":"university","building:levels":"12","building:levels:underground":"2","building:part":"yes","min_level":"1","id":"way/1389445694"},"geometry":{"type":"Polygon","coordinates":[[[139.7628117,35.7137256],[139.7628262,35.7136737],[139.7628371,35.713635],[139.7630921,35.7136816],[139.7630823,35.7137167],[139.7630667,35.7137722],[139.7628117,35.7137256]]]}},{"type":"Feature","id":"way/1441568841","properties":{"building":"yes","id":"way/1441568841"},"geometry":{"type":"Polygon","coordinates":[[[139.7630916,35.714544],[139.7631432,35.7143534],[139.7632579,35.7143739],[139.7632378,35.7144479],[139.7631962,35.7144405],[139.7631646,35.714557],[139.7630916,35.714544]]]}},{"type":"Feature","id":"way/1450669614","properties":{"building":"construction","check_date":"2025-11-14","name":"(仮称)ダイバーシティ＆インクルージョン棟(B棟)","opening_date":"2027-03-31","id":"way/1450669614"},"geometry":{"type":"Polygon","coordinates":[[[139.7638712,35.7143291],[139.7638198,35.7142472],[139.7638485,35.7141701],[139.7639039,35.7141212],[139.763977,35.7138539],[139.7641065,35.7138876],[139.7640699,35.7140192],[139.7642311,35.7140505],[139.7642202,35.714126],[139.7640235,35.7143202],[139.7638712,35.7143291]]]}}]}
