{"type":"FeatureCollection","features":[{"type":"Feature","id":"relation/2982357","properties":{"building":"university","name":"駒場図書館","type":"multipolygon","id":"relation/2982357"},"geometry":{"type":"Polygon","coordinates":[[[139.6865933,35.659253],[139.6870674,35.6591303],[139.6871909,35.6594453],[139.6867145,35.6595621],[139.6865933,35.659253]]]}},{"type":"Feature","id":"relation/20069043","properties":{"building":"university","name":"12号館","type":"multipolygon","id":"relation/20069043"},"geometry":{"type":"Polygon","coordinates":[[[139.6836275,35.6601522],[139.6836352,35.6601723],[139.6836622,35.6601916],[139.6836833,35.6602176],[139.6836964,35.6602454],[139.6837057,35.6602762],[139.6837082,35.6603042],[139.6837034,35.6603294],[139.6836895,35.6603324],[139.6836992,35.6603605],[139.6835484,35.6603948],[139.6835544,35.6604123],[139.6834347,35.6604395],[139.6833569,35.6602138],[139.6836275,35.6601522]]]}},{"type":"Feature","id":"relation/20069044","properties":{"building":"train_station","layer":"1","source":"Bing,2007-04","type":"multipolygon","id":"relation/20069044"},"geometry":{"type":"Polygon","coordinates":[[[139.6846376,35.658539],[139.6849528,35.6584587],[139.6849648,35.6584883],[139.6847213,35.6585538],[139.6845068,35.6586147],[139.6845779,35.6588084],[139.6845114,35.6588232],[139.6844815,35.658746],[139.6844631,35.6587494],[139.6844463,35.6587023],[139.6843144,35.6587254],[139.6843054,35.6586901],[139.6843685,35.6586781],[139.6843523,35.6586227],[139.6844881,35.658581],[139.6846376,35.658539]]]}},{"type":"Feature","id":"relation/20069070","properties":{"building":"university","name":"アドミニストレーション棟","type":"multipolygon","id":"relation/20069070"},"geometry":{"type":"Polygon","coordinates":[[[139.6856427,35.6591595],[139.6852219,35.6592662],[139.6851941,35.6591937],[139.6850546,35.6592291],[139.6849892,35.6590586],[139.6858254,35.6588468],[139.6858745,35.6589749],[139.6855981,35.6590474],[139.6856427,35.6591595]]]}},{"type":"Feature","id":"relation/20071961","properties":{"building":"university","name":"1号館","source":"NRPB of MLIT Japan","source:ja":"国土画像情報（オルソ化空中写真）国土計画局","type":"multipolygon","id":"relation/20071961"},"geometry":{"type":"Polygon","coordinates":[[[139.685255,35.6597745],[139.6853749,35.6600857],[139.6852768,35.6601107],[139.6852975,35.6601643],[139.684721,35.6603109],[139.6846979,35.6602508],[139.6845995,35.6602759],[139.6844786,35.6599622],[139.6845454,35.6599452],[139.6845162,35.6598693],[139.6847746,35.6598035],[139.6847629,35.6597732],[139.6848985,35.6597387],[139.6849104,35.6597697],[139.6851699,35.6597036],[139.6852024,35.6597879],[139.685255,35.6597745]],[[139.6851939,35.6600917],[139.6850888,35.6598206],[139.6849468,35.6598569],[139.6849963,35.6599846],[139.684845,35.6600233],[139.6847954,35.6598955],[139.6846593,35.6599304],[139.6847644,35.6602016],[139.6851939,35.6600917]]]}},{"type":"Feature","id":"way/43537943","properties":{"building":"university","name":"駒場博物館","id":"way/43537943"},"geometry":{"type":"Polygon","coordinates":[[[139.6855591,35.6594483],[139.6854999,35.6593013],[139.6858966,35.6591959],[139.6859558,35.6593429],[139.6855591,35.6594483]]]}},{"type":"Feature","id":"way/43537950","properties":{"building":"university","name":"保健センター","source":"NRPB of MLIT Japan","id":"way/43537950"},"geometry":{"type":"Polygon","coordinates":[[[139.6839456,35.659214],[139.6839973,35.6593611],[139.6835935,35.6594549],[139.6835732,35.6593973],[139.6835415,35.6593113],[139.6838138,35.6592451],[139.6838831,35.6592285],[139.6839456,35.659214]]]}},{"type":"Feature","id":"way/43537964","properties":{"building":"yes","name":"駒場コミュニケーション・プラザ 南館","id":"way/43537964"},"geometry":{"type":"Polygon","coordinates":[[[139.6864873,35.6595541],[139.6865293,35.6596666],[139.686692,35.6596266],[139.6867925,35.659896],[139.6864251,35.6599864],[139.6862828,35.6596044],[139.6864873,35.6595541]]]}},{"type":"Feature","id":"way/43537970","properties":{"building":"university","id":"way/43537970"},"geometry":{"type":"Polygon","coordinates":[[[139.6862685,35.6594468],[139.6862718,35.6593224],[139.6864639,35.6592695],[139.6865193,35.659415],[139.6865372,35.6594547],[139.6862734,35.6595275],[139.6862685,35.6594468]]]}},{"type":"Feature","id":"way/43537971","properties":{"building":"university","id":"way/43537971"},"geometry":{"type":"Polygon","coordinates":[[[139.6858914,35.6589872],[139.6859724,35.6589727],[139.6860318,35.6591925],[139.6859508,35.659207],[139.6858914,35.6589872]]]}},{"type":"Feature","id":"way/43835076","properties":{"building":"yes","id":"way/43835076"},"geometry":{"type":"Polygon","coordinates":[[[139.6818421,35.6615126],[139.6818149,35.6614255],[139.6818765,35.6614132],[139.6819057,35.6615007],[139.6818421,35.6615126]]]}},{"type":"Feature","id":"way/43835077","properties":{"building":"university","name":"16号館","id":"way/43835077"},"geometry":{"type":"Polygon","coordinates":[[[139.6828169,35.6616697],[139.6827423,35.6614582],[139.6834214,35.6612878],[139.6834975,35.6614933],[139.6828169,35.6616697]]]}},{"type":"Feature","id":"way/43835078","properties":{"building":"university","name":"15号館","id":"way/43835078"},"geometry":{"type":"Polygon","coordinates":[[[139.6826176,35.661338],[139.6825391,35.6611327],[139.682884,35.6610457],[139.6828894,35.6610598],[139.6829511,35.6610442],[139.6830674,35.6613483],[139.6828588,35.661401],[139.6828156,35.661288],[139.6826176,35.661338]]]}},{"type":"Feature","id":"way/43835079","properties":{"building":"university","name":"3号館","id":"way/43835079"},"geometry":{"type":"Polygon","coordinates":[[[139.6836036,35.6616347],[139.6835514,35.6614904],[139.6842564,35.6613222],[139.6843086,35.6614666],[139.6836036,35.6616347]]]}},{"type":"Feature","id":"way/43835083","properties":{"building":"university","name":"14号館","id":"way/43835083"},"geometry":{"type":"Polygon","coordinates":[[[139.6830676,35.6608081],[139.6829233,35.6604227],[139.6830797,35.660384],[139.6831586,35.6605948],[139.6833776,35.6605407],[139.683443,35.6607154],[139.6830676,35.6608081]]]}},{"type":"Feature","id":"way/43835084","properties":{"building":"university","name":"13号館","id":"way/43835084"},"geometry":{"type":"Polygon","coordinates":[[[139.6835195,35.660685],[139.6834474,35.6604893],[139.6839496,35.6603672],[139.6840216,35.6605629],[139.6835195,35.660685]]]}},{"type":"Feature","id":"way/43835085","properties":{"building":"university","name":"11号館","id":"way/43835085"},"geometry":{"type":"Polygon","coordinates":[[[139.6841249,35.6604648],[139.6840069,35.6601345],[139.684271,35.6600722],[139.6843889,35.6604026],[139.6841249,35.6604648]]]}},{"type":"Feature","id":"way/43835086","properties":{"amenity":"toilets","building":"yes","id":"way/43835086"},"geometry":{"type":"Polygon","coordinates":[[[139.6844082,35.6605083],[139.6843993,35.6604857],[139.6844914,35.6604618],[139.6845003,35.6604843],[139.6844082,35.6605083]]]}},{"type":"Feature","id":"way/43835088","properties":{"building":"university","name":"7号館","id":"way/43835088"},"geometry":{"type":"Polygon","coordinates":[[[139.6844345,35.660881],[139.6843651,35.660702],[139.6847495,35.6606037],[139.6848188,35.6607827],[139.6844345,35.660881]]]}},{"type":"Feature","id":"way/43835089","properties":{"building":"university","name":"21 Komaba Center for Educational Excellence(21 KOMCEE East)","id":"way/43835089"},"geometry":{"type":"Polygon","coordinates":[[[139.6859345,35.6604726],[139.6858673,35.6602987],[139.6863398,35.6601751],[139.6864006,35.6603539],[139.6865846,35.6608832],[139.6863824,35.6609333],[139.6861979,35.6604072],[139.6859345,35.6604726]]]}},{"type":"Feature","id":"way/43835090","properties":{"building":"university","name":"10号館","id":"way/43835090"},"geometry":{"type":"Polygon","coordinates":[[[139.6848751,35.6607955],[139.6847922,35.6605772],[139.6850665,35.6605084],[139.6851494,35.6607268],[139.6848751,35.6607955]]]}},{"type":"Feature","id":"way/43835091","properties":{"building":"university","name":"8号館","id":"way/43835091"},"geometry":{"type":"Polygon","coordinates":[[[139.6852546,35.6606342],[139.6851926,35.6604649],[139.6858212,35.660312],[139.6858875,35.6604853],[139.6852546,35.6606342]]]}},{"type":"Feature","id":"way/43835092","properties":{"building":"university","name":"21 Komaba Center for Educational Excellence(21 KOMCEE  West)","id":"way/43835092"},"geometry":{"type":"Polygon","coordinates":[[[139.6858115,35.6607864],[139.6858596,35.6607744],[139.6858142,35.6606537],[139.6859537,35.6606191],[139.6859672,35.660655],[139.6861712,35.6606044],[139.6862171,35.6607265],[139.6860563,35.6607664],[139.686134,35.6609733],[139.6859032,35.6610305],[139.6858115,35.6607864]]]}},{"type":"Feature","id":"way/43837861","properties":{"building":"yes","name":"格技場","id":"way/43837861"},"geometry":{"type":"Polygon","coordinates":[[[139.6849704,35.6623748],[139.6849274,35.662264],[139.6850695,35.6622276],[139.6851126,35.6623384],[139.6849704,35.6623748]]]}},{"type":"Feature","id":"way/43837864","properties":{"building":"university","name":"身体運動科学研究棟","id":"way/43837864"},"geometry":{"type":"Polygon","coordinates":[[[139.687669,35.6611645],[139.6876025,35.6610745],[139.6878881,35.6609359],[139.6879225,35.6609843],[139.6879549,35.6610242],[139.687669,35.6611645]]]}},{"type":"Feature","id":"way/43839279","properties":{"access":"unknown","building":"university","leisure":"sports_hall","name":"第一体育館","sport":"multi","id":"way/43839279"},"geometry":{"type":"Polygon","coordinates":[[[139.6876494,35.6606653],[139.6875548,35.6604307],[139.6876364,35.660409],[139.6876219,35.660373],[139.6877689,35.6603339],[139.6877831,35.6603692],[139.6878919,35.6603403],[139.6879868,35.6605755],[139.6876494,35.6606653]]]}},{"type":"Feature","id":"way/43839282","properties":{"building":"university","name":"キャンパスプラザA棟","id":"way/43839282"},"geometry":{"type":"Polygon","coordinates":[[[139.6873058,35.6604205],[139.6872044,35.6601739],[139.6873888,35.6601238],[139.6874903,35.6603704],[139.6873058,35.6604205]]]}},{"type":"Feature","id":"way/43839283","properties":{"building":"university","name":"キャンパスプラザB棟","id":"way/43839283"},"geometry":{"type":"Polygon","coordinates":[[[139.6875693,35.6603495],[139.6874758,35.6601065],[139.687648,35.6600628],[139.6877414,35.6603058],[139.6875693,35.6603495]]]}},{"type":"Feature","id":"way/43886288","properties":{"building":"university","name":"駒場コミュニケーション・プラザ 北館","id":"way/43886288"},"geometry":{"type":"Polygon","coordinates":[[[139.6867438,35.6602133],[139.6866793,35.6600387],[139.6875191,35.6598339],[139.6875836,35.6600085],[139.6867438,35.6602133]]]}},{"type":"Feature","id":"way/43886289","properties":{"building":"university","id":"way/43886289"},"geometry":{"type":"Polygon","coordinates":[[[139.6876718,35.6599449],[139.6876187,35.659811],[139.6877695,35.6597701],[139.6878198,35.6599063],[139.6876718,35.6599449]]]}},{"type":"Feature","id":"way/43887197","properties":{"building":"university","name":"101号館","source":"NRPB of MLIT Japan","source:ja":"国土画像情報（オルソ化空中写真）国土計画局","id":"way/43887197"},"geometry":{"type":"Polygon","coordinates":[[[139.6856223,35.6600315],[139.6855879,35.659945],[139.6857866,35.6598939],[139.6859267,35.6598579],[139.686135,35.6598043],[139.6861699,35.6598936],[139.6859672,35.6599451],[139.6859834,35.6599939],[139.6858447,35.6600295],[139.6858249,35.6599802],[139.6856223,35.6600315]]]}},{"type":"Feature","id":"way/44546658","properties":{"building":"university","name":"2号館","id":"way/44546658"},"geometry":{"type":"Polygon","coordinates":[[[139.6829824,35.6603717],[139.6829214,35.6602081],[139.6832795,35.6601201],[139.6833404,35.6602837],[139.6829824,35.6603717]]]}},{"type":"Feature","id":"way/44546659","properties":{"building":"university","name":"駒場コミュニケーション・プラザ 和館","id":"way/44546659"},"geometry":{"type":"Polygon","coordinates":[[[139.6878434,35.6596113],[139.6877517,35.6594036],[139.6878872,35.6593641],[139.6879789,35.6595718],[139.6878434,35.6596113]]]}},{"type":"Feature","id":"way/44546660","properties":{"building":"university","name":"900番講堂","source":"NRPB of MLIT Japan","source:ja":"国土画像情報（オルソ化空中写真）国土計画局","id":"way/44546660"},"geometry":{"type":"Polygon","coordinates":[[[139.6836479,35.6599577],[139.6835703,35.6597741],[139.6839712,35.6596681],[139.6840392,35.6598482],[139.683924,35.6598804],[139.6836479,35.6599577]]]}},{"type":"Feature","id":"way/44546690","properties":{"building":"university","name":"5号館","id":"way/44546690"},"geometry":{"type":"Polygon","coordinates":[[[139.6840711,35.6612413],[139.683997,35.6610323],[139.6845772,35.6608963],[139.6846514,35.6611054],[139.6840711,35.6612413]]]}},{"type":"Feature","id":"way/133340600","properties":{"building":"yes","source":"Bing","id":"way/133340600"},"geometry":{"type":"Polygon","coordinates":[[[139.6825446,35.6591591],[139.6826755,35.6591345],[139.6826874,35.6591765],[139.6825565,35.6592011],[139.6825446,35.6591591]]]}},{"type":"Feature","id":"way/133753621","properties":{"building":"university","name":"大学院数理科学研究科","source":"Bing,2007-04","id":"way/133753621"},"geometry":{"type":"Polygon","coordinates":[[[139.6870563,35.6582991],[139.6872265,35.6582745],[139.6873991,35.6582981],[139.6876182,35.6583604],[139.6875734,35.6584643],[139.6875634,35.6585996],[139.6871291,35.6585785],[139.6864078,35.6587207],[139.6863718,35.6586003],[139.6862001,35.6586342],[139.6861532,35.6584772],[139.6870563,35.6582991]]]}},{"type":"Feature","id":"way/133753648","properties":{"building":"yes","source":"Bing,2007-04","id":"way/133753648"},"geometry":{"type":"Polygon","coordinates":[[[139.687406,35.6590498],[139.6873858,35.6589959],[139.6875112,35.6589649],[139.6875314,35.6590188],[139.687406,35.6590498]]]}},{"type":"Feature","id":"way/133753667","properties":{"building":"university","building:levels":"1","name":"柏蔭舎","source":"Bing,2007-04;local knowledge","id":"way/133753667"},"geometry":{"type":"Polygon","coordinates":[[[139.6883489,35.6588599],[139.688262,35.6588513],[139.6882776,35.6587475],[139.6883645,35.6587561],[139.6883489,35.6588599]]]}},{"type":"Feature","id":"way/133797723","properties":{"building":"yes","source":"Bing,2007-04","id":"way/133797723"},"geometry":{"type":"Polygon","coordinates":[[[139.6874437,35.658236],[139.6874218,35.6581422],[139.6874667,35.6581353],[139.6874886,35.6582291],[139.6874437,35.658236]]]}},{"type":"Feature","id":"way/133977049","properties":{"building":"yes","source":"Bing,2007-04","id":"way/133977049"},"geometry":{"type":"Polygon","coordinates":[[[139.6871466,35.6618542],[139.6870513,35.6617835],[139.6871472,35.6616982],[139.6872425,35.6617689],[139.6871466,35.6618542]]]}},{"type":"Feature","id":"way/224459839","properties":{"building":"university","name":"18号館","id":"way/224459839"},"geometry":{"type":"Polygon","coordinates":[[[139.6849802,35.6613015],[139.6848251,35.6609068],[139.6850517,35.660848],[139.6851489,35.6610951],[139.6853354,35.6610467],[139.6853934,35.6611943],[139.6849802,35.6613015]]]}},{"type":"Feature","id":"way/224460760","properties":{"building":"university","name":"アドバンスト・リサーチ・ラボラトリー","id":"way/224460760"},"geometry":{"type":"Polygon","coordinates":[[[139.6847019,35.6616356],[139.6846565,35.661513],[139.684986,35.6614324],[139.6850314,35.6615551],[139.6847019,35.6616356]]]}},{"type":"Feature","id":"way/224460761","properties":{"building":"university","name":"9号館","id":"way/224460761"},"geometry":{"type":"Polygon","coordinates":[[[139.6851607,35.6609704],[139.6851083,35.6608319],[139.6857129,35.660681],[139.6857652,35.6608194],[139.6851607,35.6609704]]]}},{"type":"Feature","id":"way/224467952","properties":{"building":"university","name":"17号館","id":"way/224467952"},"geometry":{"type":"Polygon","coordinates":[[[139.6835571,35.6613001],[139.6835009,35.66115],[139.6838928,35.661053],[139.6839491,35.6612031],[139.6835571,35.6613001]]]}},{"type":"Feature","id":"way/224467953","properties":{"building":"university","name":"6号館","id":"way/224467953"},"geometry":{"type":"Polygon","coordinates":[[[139.6834075,35.6610933],[139.6834018,35.661078],[139.6833751,35.661085],[139.6833578,35.6610432],[139.6833855,35.6610337],[139.6833549,35.6609507],[139.6840004,35.6607938],[139.6840529,35.6609362],[139.6837928,35.6609995],[139.6838017,35.6610204],[139.6836063,35.6610693],[139.6836002,35.6610464],[139.6834075,35.6610933]]]}},{"type":"Feature","id":"way/224479261","properties":{"building":"university","name":"102号館","id":"way/224479261"},"geometry":{"type":"Polygon","coordinates":[[[139.6834028,35.6592848],[139.6834194,35.6593312],[139.6834694,35.6593194],[139.6834937,35.6593875],[139.6834458,35.6593988],[139.6834651,35.6594528],[139.6832467,35.6595042],[139.6831866,35.6593358],[139.6834028,35.6592848]]]}},{"type":"Feature","id":"way/224479373","properties":{"building":"university","name":"情報教育棟A","id":"way/224479373"},"geometry":{"type":"Polygon","coordinates":[[[139.6838866,35.6591562],[139.6838209,35.6589721],[139.6842098,35.6588729],[139.6842795,35.6590669],[139.6838866,35.6591562]]]}},{"type":"Feature","id":"way/224479374","properties":{"building":"university","name":"情報教育棟B","id":"way/224479374"},"geometry":{"type":"Polygon","coordinates":[[[139.6838494,35.6591148],[139.6836377,35.6591673],[139.6836692,35.6592515],[139.6834916,35.6592955],[139.6834085,35.6590739],[139.6837979,35.6589775],[139.6838494,35.6591148]]]}},{"type":"Feature","id":"way/224479675","properties":{"building":"university","name":"駒場ファカルティ・ハウス","id":"way/224479675"},"geometry":{"type":"Polygon","coordinates":[[[139.6833177,35.6598444],[139.6832468,35.6598629],[139.6832669,35.6599134],[139.6831655,35.65994],[139.6831412,35.6598789],[139.6830613,35.6598999],[139.6830698,35.6599212],[139.682952,35.6599522],[139.6829407,35.6599239],[139.6827618,35.6599448],[139.6826712,35.6597156],[139.6829251,35.6596465],[139.6829466,35.6596987],[139.683171,35.6596377],[139.6831926,35.6596899],[139.6832478,35.6596748],[139.6833177,35.6598444]]]}},{"type":"Feature","id":"way/224480311","properties":{"building":"university","name":"新学生会館","id":"way/224480311"},"geometry":{"type":"Polygon","coordinates":[[[139.6858089,35.6612783],[139.6857704,35.661177],[139.6860541,35.6611039],[139.6860949,35.6612015],[139.6858089,35.6612783]]]}},{"type":"Feature","id":"way/224481337","properties":{"building":"university","name":"学生会館","id":"way/224481337"},"geometry":{"type":"Polygon","coordinates":[[[139.6861219,35.6611977],[139.6860796,35.6610841],[139.6866039,35.6609552],[139.6866462,35.6610688],[139.6861219,35.6611977]]]}},{"type":"Feature","id":"way/695880627","properties":{"building":"roof","layer":"1","id":"way/695880627"},"geometry":{"type":"Polygon","coordinates":[[[139.6865813,35.6602113],[139.6863691,35.6596362],[139.6865057,35.659603],[139.6867179,35.6601781],[139.6865813,35.6602113]]]}},{"type":"Feature","id":"way/695896981","properties":{"building":"yes","id":"way/695896981"},"geometry":{"type":"Polygon","coordinates":[[[139.6844819,35.6593017],[139.6844638,35.6592442],[139.6845609,35.659224],[139.684579,35.6592815],[139.6844819,35.6593017]]]}},{"type":"Feature","id":"way/695896985","properties":{"building":"yes","id":"way/695896985"},"geometry":{"type":"Polygon","coordinates":[[[139.6847062,35.6591934],[139.6847689,35.6591816],[139.6847851,35.6592383],[139.6847224,35.6592501],[139.6847062,35.6591934]]]}},{"type":"Feature","id":"way/1036804273","properties":{"access":"unknown","building":"university","leisure":"sports_hall","name":"第二体育館","sport":"multi","id":"way/1036804273"},"geometry":{"type":"Polygon","coordinates":[[[139.6868903,35.6608119],[139.6867249,35.6603773],[139.6871958,35.6602589],[139.6873613,35.6606936],[139.6868903,35.6608119]]]}},{"type":"Feature","id":"way/1206742523","properties":{"building":"kindergarten","name":"東大駒場地区保育所","website":"https://komabakko.wixsite.com/komabakko","id":"way/1206742523"},"geometry":{"type":"Polygon","coordinates":[[[139.6880925,35.6603328],[139.6881804,35.6602286],[139.6880889,35.6601777],[139.6881684,35.6600833],[139.6883334,35.6601751],[139.688166,35.6603737],[139.6880925,35.6603328]]]}},{"type":"Feature","id":"way/1207695903","properties":{"building":"yes","name":"19号館","id":"way/1207695903"},"geometry":{"type":"Polygon","coordinates":[[[139.6871332,35.6614791],[139.686915,35.6610886],[139.6871517,35.6610012],[139.68737,35.6613917],[139.6871332,35.6614791]]]}}]}
