{"type":"FeatureCollection","features":[{"type":"Feature","id":"way/28136928","properties":{"highway":"residential","id":"way/28136928"},"geometry":{"type":"LineString","coordinates":[[139.684457,35.6587787],[139.6843062,35.6588108],[139.6838537,35.6589072],[139.6832611,35.6590221],[139.6828718,35.6590816],[139.6827951,35.659089],[139.6827365,35.6590962]]}},{"type":"Feature","id":"way/33479861","properties":{"highway":"footway","lit":"yes","surface":"asphalt","id":"way/33479861"},"geometry":{"type":"LineString","coordinates":[[139.6860727,35.6584577],[139.6860609,35.6582369],[139.6860613,35.6582154]]}},{"type":"Feature","id":"way/33614269","properties":{"highway":"service","source":"NRPB of MLIT Japan","surface":"paved","id":"way/33614269"},"geometry":{"type":"LineString","coordinates":[[139.684457,35.6587787],[139.6844816,35.658843],[139.6845691,35.6590722],[139.6846412,35.659248],[139.6846661,35.6593127],[139.6847057,35.6594146]]}},{"type":"Feature","id":"way/43315383","properties":{"highway":"service","layer":"-1","surface":"paved","id":"way/43315383"},"geometry":{"type":"LineString","coordinates":[[139.6843755,35.6612307],[139.684838,35.6611122],[139.6858167,35.6608634]]}},{"type":"Feature","id":"way/43315384","properties":{"highway":"service","surface":"paved","id":"way/43315384"},"geometry":{"type":"LineString","coordinates":[[139.6856299,35.6602708],[139.6862044,35.660125],[139.6863766,35.6600802]]}},{"type":"Feature","id":"way/43315385","properties":{"highway":"service","id":"way/43315385"},"geometry":{"type":"LineString","coordinates":[[139.6878294,35.6615076],[139.6877547,35.6614664],[139.6877339,35.6614553],[139.6876831,35.6614133],[139.6876039,35.6613637],[139.6875304,35.6613394],[139.68746,35.6613188],[139.6873102,35.6611086],[139.6871673,35.660909],[139.6869356,35.6610411],[139.6868121,35.661095],[139.6867193,35.6609801],[139.6866405,35.6607669],[139.6864702,35.660316],[139.6863766,35.6600802],[139.6862065,35.659573],[139.6859548,35.6596408]]}},{"type":"Feature","id":"way/43315388","properties":{"highway":"service","surface":"paved","id":"way/43315388"},"geometry":{"type":"LineString","coordinates":[[139.6853762,35.6595394],[139.6854402,35.6597775],[139.685523,35.6599838],[139.685564,35.6600939],[139.6855909,35.660166],[139.6856299,35.6602708]]}},{"type":"Feature","id":"way/43315389","properties":{"highway":"service","source":"NRPB of MLIT Japan","source:ja":"国土画像情報（オルソ化空中写真）国土計画局","surface":"paved","id":"way/43315389"},"geometry":{"type":"LineString","coordinates":[[139.6843255,35.6596963],[139.684609,35.6596355]]}},{"type":"Feature","id":"way/43315390","properties":{"highway":"service","surface":"paved","id":"way/43315390"},"geometry":{"type":"LineString","coordinates":[[139.6856299,35.6602708],[139.6846188,35.6605099],[139.6844241,35.6605566],[139.6841419,35.6606284],[139.68383,35.6607055],[139.683763,35.6607227],[139.6832323,35.6608672],[139.6830034,35.6609196],[139.6827468,35.6609823],[139.6823881,35.66107]]}},{"type":"Feature","id":"way/43433326","properties":{"highway":"steps","id":"way/43433326"},"geometry":{"type":"LineString","coordinates":[[139.6864961,35.6591629],[139.6864916,35.6591926]]}},{"type":"Feature","id":"way/43433328","properties":{"highway":"path","id":"way/43433328"},"geometry":{"type":"LineString","coordinates":[[139.688377,35.6591653],[139.6884163,35.6592186],[139.6884137,35.6592433],[139.6884277,35.6593131],[139.688327,35.6595144],[139.6882371,35.6596945],[139.6882658,35.6598675],[139.6882402,35.6599339],[139.6880172,35.6599857]]}},{"type":"Feature","id":"way/43537940","properties":{"highway":"service","surface":"paved","id":"way/43537940"},"geometry":{"type":"LineString","coordinates":[[139.6823881,35.66107],[139.6826759,35.6618068],[139.6835112,35.6616031],[139.6835855,35.6617939],[139.6835993,35.6618319],[139.6838667,35.6625626],[139.6839008,35.662663],[139.6839156,35.6627217],[139.6839322,35.6628072],[139.6839202,35.6628179],[139.6839026,35.6628322],[139.6838666,35.6628436],[139.6837911,35.6628605],[139.6837272,35.6628923],[139.6836816,35.6629252],[139.6836543,35.6629505],[139.6835988,35.663007],[139.6835772,35.6630323],[139.6835501,35.6630652],[139.6835421,35.6630836],[139.6835351,35.6631159]]}},{"type":"Feature","id":"way/43537942","properties":{"highway":"service","surface":"paved","id":"way/43537942"},"geometry":{"type":"LineString","coordinates":[[139.6862065,35.659573],[139.6861702,35.6592397],[139.6861563,35.6591826],[139.6861514,35.6591511],[139.6861378,35.659064],[139.6861203,35.6589513],[139.6861807,35.6587968]]}},{"type":"Feature","id":"way/43537946","properties":{"highway":"footway","surface":"cobblestone","id":"way/43537946"},"geometry":{"type":"LineString","coordinates":[[139.6864403,35.6590276],[139.6864888,35.6590317],[139.6865323,35.659012],[139.6865737,35.6589774],[139.6865202,35.6589651],[139.6864365,35.6589374],[139.686416,35.6589306],[139.6863801,35.658916],[139.6863655,35.6589101],[139.6864781,35.6587978]]}},{"type":"Feature","id":"way/43537947","properties":{"highway":"service","surface":"paved","id":"way/43537947"},"geometry":{"type":"LineString","coordinates":[[139.6846188,35.6605099],[139.6845938,35.6604351],[139.6844042,35.6599109]]}},{"type":"Feature","id":"way/43537948","properties":{"highway":"service","surface":"paved","id":"way/43537948"},"geometry":{"type":"LineString","coordinates":[[139.6830034,35.6609196],[139.6828305,35.6603799],[139.6828219,35.6602684],[139.6828379,35.6602315],[139.6828526,35.6601504],[139.6829596,35.6601251],[139.683498,35.6599916],[139.6836127,35.6600385],[139.6839104,35.6599653],[139.6841352,35.6599021],[139.6843757,35.6598344]]}},{"type":"Feature","id":"way/43537953","properties":{"highway":"service","surface":"paved","id":"way/43537953"},"geometry":{"type":"LineString","coordinates":[[139.6876685,35.6583314],[139.687558,35.6582993],[139.6872662,35.6582422],[139.6871966,35.6582458],[139.6871042,35.6582576],[139.686553,35.658359],[139.6860727,35.6584577]]}},{"type":"Feature","id":"way/43537954","properties":{"highway":"footway","surface":"paved","id":"way/43537954"},"geometry":{"type":"LineString","coordinates":[[139.687641,35.6586192],[139.6875269,35.6587502],[139.6864781,35.6587978],[139.6861807,35.6587968]]}},{"type":"Feature","id":"way/43537956","properties":{"highway":"service","oneway":"yes","service":"parking_aisle","surface":"paved","id":"way/43537956"},"geometry":{"type":"LineString","coordinates":[[139.687641,35.6586192],[139.6876685,35.6583314]]}},{"type":"Feature","id":"way/43537957","properties":{"highway":"service","oneway":"yes","service":"parking_aisle","surface":"paved","id":"way/43537957"},"geometry":{"type":"LineString","coordinates":[[139.6880218,35.6584297],[139.6879096,35.6583341],[139.6876685,35.6583314]]}},{"type":"Feature","id":"way/43537958","properties":{"highway":"service","service":"parking_aisle","surface":"paved","id":"way/43537958"},"geometry":{"type":"LineString","coordinates":[[139.687641,35.6586192],[139.6880218,35.6584297],[139.6881307,35.6583786],[139.6882224,35.6583293]]}},{"type":"Feature","id":"way/43537960","properties":{"highway":"steps","surface":"paved","id":"way/43537960"},"geometry":{"type":"LineString","coordinates":[[139.6863136,35.659546],[139.6862065,35.659573]]}},{"type":"Feature","id":"way/43537962","properties":{"bicycle":"no","highway":"service","surface":"paved","id":"way/43537962"},"geometry":{"type":"LineString","coordinates":[[139.6863766,35.6600802],[139.6864847,35.6600732],[139.6866719,35.6600285],[139.6868853,35.6599742],[139.6870996,35.6599196],[139.6879422,35.6597144]]}},{"type":"Feature","id":"way/43537963","properties":{"highway":"service","surface":"paved","id":"way/43537963"},"geometry":{"type":"LineString","coordinates":[[139.6879422,35.6597144],[139.6880877,35.6595856],[139.68815,35.6595089],[139.6881822,35.6594287],[139.6881988,35.6593551],[139.6881988,35.6592383],[139.6881908,35.6592096],[139.6881606,35.6591391],[139.6880792,35.6590431],[139.6880266,35.6590949],[139.6878496,35.6591477],[139.6875438,35.6592073],[139.6872343,35.6590543],[139.6869916,35.6590893],[139.6866125,35.6591408],[139.686535,35.659151],[139.6864961,35.6591629],[139.6861702,35.6592397]]}},{"type":"Feature","id":"way/43537966","properties":{"highway":"footway","id":"way/43537966"},"geometry":{"type":"LineString","coordinates":[[139.6864916,35.6591926],[139.6865975,35.6594719],[139.6863136,35.659546]]}},{"type":"Feature","id":"way/43537967","properties":{"highway":"footway","surface":"cobblestone","id":"way/43537967"},"geometry":{"type":"LineString","coordinates":[[139.6865737,35.6589774],[139.6865657,35.659021],[139.6865464,35.6590662],[139.6865232,35.6591081],[139.6864961,35.6591629]]}},{"type":"Feature","id":"way/43537968","properties":{"highway":"footway","surface":"cobblestone","id":"way/43537968"},"geometry":{"type":"LineString","coordinates":[[139.6865232,35.6591081],[139.6864939,35.6591122],[139.6864362,35.6591179],[139.6863725,35.6591327],[139.6863139,35.6591196],[139.6862815,35.6591114]]}},{"type":"Feature","id":"way/43537972","properties":{"highway":"footway","surface":"cobblestone","id":"way/43537972"},"geometry":{"type":"LineString","coordinates":[[139.6861563,35.6591826],[139.686221,35.6591458],[139.6862815,35.6591114],[139.6863867,35.6590867],[139.6864403,35.6590276],[139.6864433,35.6589824],[139.6864099,35.6589503],[139.6863655,35.6589101],[139.6863038,35.6588961],[139.686236,35.6589109],[139.6861582,35.6589388],[139.6861203,35.6589513]]}},{"type":"Feature","id":"way/43833339","properties":{"highway":"service","surface":"paved","id":"way/43833339"},"geometry":{"type":"LineString","coordinates":[[139.6844875,35.6615319],[139.6843755,35.6612307],[139.6835132,35.6614353],[139.683427,35.6612089],[139.6833695,35.6612253],[139.6832323,35.6608672]]}},{"type":"Feature","id":"way/43833340","properties":{"highway":"footway","id":"way/43833340"},"geometry":{"type":"LineString","coordinates":[[139.6837388,35.6617068],[139.6835993,35.6618319]]}},{"type":"Feature","id":"way/43833342","properties":{"highway":"footway","id":"way/43833342"},"geometry":{"type":"LineString","coordinates":[[139.6836543,35.6629505],[139.6836179,35.6629398],[139.6835706,35.6629343],[139.6835126,35.6629312],[139.6834652,35.6629363],[139.683386,35.6629444],[139.6833299,35.6629505],[139.6832463,35.6629529],[139.6831711,35.6629488],[139.6830762,35.6629415],[139.6829958,35.6629261],[139.6829247,35.6629088],[139.68288,35.6628935],[139.6828167,35.6628744],[139.6826996,35.6628293],[139.6825671,35.6627672],[139.6824911,35.6627238],[139.682415,35.6626735],[139.6823243,35.6625964],[139.6822554,35.6625292],[139.6821931,35.6624613],[139.6821448,35.662391],[139.6820993,35.6623201],[139.6820584,35.6622357],[139.6820078,35.6620979],[139.6819664,35.6619858],[139.6826759,35.6618068]]}},{"type":"Feature","id":"way/43833751","properties":{"highway":"footway","id":"way/43833751"},"geometry":{"type":"LineString","coordinates":[[139.6835112,35.6616031],[139.6835132,35.6614353]]}},{"type":"Feature","id":"way/43833752","properties":{"highway":"footway","id":"way/43833752"},"geometry":{"type":"LineString","coordinates":[[139.6839322,35.6628072],[139.6839505,35.6628196],[139.6839822,35.6628291],[139.6840127,35.662838],[139.6840521,35.6628469],[139.684089,35.6628461],[139.6841852,35.6628246],[139.6844344,35.6627685]]}},{"type":"Feature","id":"way/43833754","properties":{"highway":"footway","id":"way/43833754"},"geometry":{"type":"LineString","coordinates":[[139.6838667,35.6625626],[139.6839991,35.6625313]]}},{"type":"Feature","id":"way/43833755","properties":{"highway":"steps","id":"way/43833755"},"geometry":{"type":"LineString","coordinates":[[139.6835855,35.6617939],[139.6834793,35.6618201]]}},{"type":"Feature","id":"way/43835073","properties":{"highway":"service","id":"way/43835073"},"geometry":{"type":"LineString","coordinates":[[139.6817667,35.6612083],[139.6819269,35.6611729],[139.6822059,35.6611112],[139.6823605,35.6610756],[139.6823881,35.66107]]}},{"type":"Feature","id":"way/43835074","properties":{"highway":"footway","id":"way/43835074"},"geometry":{"type":"LineString","coordinates":[[139.6813196,35.6607639],[139.681358,35.6607623],[139.681637,35.6607478]]}},{"type":"Feature","id":"way/43835075","properties":{"highway":"footway","id":"way/43835075"},"geometry":{"type":"LineString","coordinates":[[139.6816179,35.6606596],[139.681637,35.6607478],[139.6816625,35.6608446],[139.6817023,35.6609956],[139.6817667,35.6612083],[139.6818363,35.6614116]]}},{"type":"Feature","id":"way/43835080","properties":{"highway":"footway","id":"way/43835080"},"geometry":{"type":"LineString","coordinates":[[139.6827303,35.6591205],[139.6827106,35.6591608],[139.6826804,35.659228],[139.6826405,35.6593175],[139.6825937,35.6594259],[139.6825762,35.659551],[139.6825632,35.6596636],[139.6826377,35.6599561],[139.6827071,35.6602045],[139.6827142,35.6602246]]}},{"type":"Feature","id":"way/43835081","properties":{"highway":"steps","id":"way/43835081"},"geometry":{"type":"LineString","coordinates":[[139.6827142,35.6602246],[139.6828196,35.6602356]]}},{"type":"Feature","id":"way/43835082","properties":{"highway":"footway","id":"way/43835082"},"geometry":{"type":"LineString","coordinates":[[139.6828196,35.6602356],[139.6828379,35.6602315]]}},{"type":"Feature","id":"way/43837858","properties":{"highway":"footway","id":"way/43837858"},"geometry":{"type":"LineString","coordinates":[[139.6867612,35.6611278],[139.6851006,35.6615228],[139.6850539,35.6615639]]}},{"type":"Feature","id":"way/43837859","properties":{"highway":"path","id":"way/43837859"},"geometry":{"type":"LineString","coordinates":[[139.6851006,35.6615228],[139.6851198,35.6616342],[139.6850832,35.6617135],[139.685063,35.6617836],[139.6850566,35.6618458],[139.685088,35.6619405],[139.6851502,35.662051],[139.6851669,35.6621035],[139.6851942,35.6621669],[139.6852459,35.6622455],[139.6853059,35.6622982],[139.6853619,35.6623441]]}},{"type":"Feature","id":"way/43837860","properties":{"highway":"footway","id":"way/43837860"},"geometry":{"type":"LineString","coordinates":[[139.685271,35.6623715],[139.6853619,35.6623441],[139.6854733,35.6623104],[139.6855822,35.6622864],[139.6858137,35.6622473],[139.6867559,35.6619756],[139.6868608,35.6619323],[139.6869401,35.6618848],[139.6869843,35.6618425],[139.6870317,35.6617856],[139.687066,35.6617088],[139.6870864,35.6616322],[139.6871282,35.6615538],[139.6871291,35.6615331],[139.6869242,35.6611667],[139.6868439,35.6611576]]}},{"type":"Feature","id":"way/43839274","properties":{"highway":"footway","id":"way/43839274"},"geometry":{"type":"LineString","coordinates":[[139.6868121,35.661095],[139.6868439,35.6611576]]}},{"type":"Feature","id":"way/43839275","properties":{"highway":"footway","id":"way/43839275"},"geometry":{"type":"LineString","coordinates":[[139.6871291,35.6615331],[139.6873779,35.6614271],[139.6875304,35.6613394]]}},{"type":"Feature","id":"way/43839280","properties":{"highway":"service","id":"way/43839280"},"geometry":{"type":"LineString","coordinates":[[139.6871673,35.660909],[139.6873555,35.6608309],[139.6881004,35.6606502]]}},{"type":"Feature","id":"way/43839281","properties":{"highway":"service","id":"way/43839281"},"geometry":{"type":"LineString","coordinates":[[139.6883887,35.660836],[139.6883228,35.6607934],[139.6882799,35.6607673],[139.6881591,35.6606924],[139.6881004,35.6606502],[139.6880616,35.6605303],[139.6880138,35.6603837],[139.6880434,35.6602929],[139.688063,35.6602188],[139.6880701,35.6601048],[139.688063,35.6600352],[139.6880172,35.6599857],[139.6880032,35.6599547],[139.6879892,35.6599239],[139.6879387,35.6598126],[139.687941,35.6597483],[139.6879422,35.6597144]]}},{"type":"Feature","id":"way/43886078","properties":{"highway":"steps","id":"way/43886078"},"geometry":{"type":"LineString","coordinates":[[139.6827468,35.6609823],[139.6826994,35.6608482]]}},{"type":"Feature","id":"way/43886079","properties":{"highway":"steps","id":"way/43886079"},"geometry":{"type":"LineString","coordinates":[[139.6823605,35.6610756],[139.6823116,35.6609388]]}},{"type":"Feature","id":"way/43886080","properties":{"highway":"service","id":"way/43886080"},"geometry":{"type":"LineString","coordinates":[[139.6819269,35.6611729],[139.6819012,35.6610988],[139.681885,35.6610353],[139.6818555,35.6609683],[139.6818187,35.6609012],[139.6818039,35.6608257],[139.6818003,35.6607976]]}},{"type":"Feature","id":"way/43886290","properties":{"highway":"footway","id":"way/43886290"},"geometry":{"type":"LineString","coordinates":[[139.6870996,35.6599196],[139.6870543,35.6598046],[139.6870331,35.6597508],[139.687025,35.6597261],[139.6869499,35.6595216]]}},{"type":"Feature","id":"way/43887196","properties":{"highway":"service","id":"way/43887196"},"geometry":{"type":"LineString","coordinates":[[139.6859548,35.6596408],[139.6858973,35.6596564],[139.6858854,35.6596596],[139.6858026,35.659682],[139.6857312,35.6597014],[139.6856972,35.6597103],[139.6854402,35.6597775]]}},{"type":"Feature","id":"way/43892019","properties":{"highway":"service","id":"way/43892019"},"geometry":{"type":"LineString","coordinates":[[139.6841419,35.6606284],[139.6839104,35.6599653]]}},{"type":"Feature","id":"way/44546663","properties":{"highway":"service","source":"NRPB of MLIT Japan","id":"way/44546663"},"geometry":{"type":"LineString","coordinates":[[139.6846661,35.6593127],[139.6845558,35.65933],[139.6842174,35.6594062],[139.6839818,35.6594983],[139.6833981,35.6596982],[139.683498,35.6599916]]}},{"type":"Feature","id":"way/44546665","properties":{"highway":"path","id":"way/44546665"},"geometry":{"type":"LineString","coordinates":[[139.6861478,35.6586936],[139.6859157,35.6587902],[139.6857841,35.6585621],[139.6855182,35.6587865],[139.6853961,35.6588843],[139.6846322,35.6590579],[139.6845691,35.6590722]]}},{"type":"Feature","id":"way/317014117","properties":{"highway":"steps","id":"way/317014117"},"geometry":{"type":"LineString","coordinates":[[139.6845507,35.6588253],[139.6845194,35.6587371]]}},{"type":"Feature","id":"way/317078057","properties":{"highway":"service","source":"NRPB of MLIT Japan","surface":"paved","id":"way/317078057"},"geometry":{"type":"LineString","coordinates":[[139.6852358,35.6594537],[139.6852432,35.6594785],[139.6852582,35.6595008],[139.6852799,35.6595193],[139.6853067,35.6595325],[139.6853368,35.6595396],[139.6853762,35.6595394],[139.6854069,35.6595312],[139.6854397,35.6595124],[139.685463,35.6594858],[139.6854743,35.6594545],[139.6854721,35.6594219],[139.6854569,35.6593917],[139.6854302,35.6593673],[139.6853951,35.6593514],[139.6853556,35.6593458],[139.6853159,35.6593511],[139.6852807,35.6593668],[139.6852538,35.659391],[139.6852382,35.6594211],[139.6852358,35.6594537]]}},{"type":"Feature","id":"way/317078058","properties":{"highway":"service","source":"NRPB of MLIT Japan","surface":"paved","id":"way/317078058"},"geometry":{"type":"LineString","coordinates":[[139.6847057,35.6594146],[139.6847549,35.6594056],[139.6847785,35.6594053],[139.684843,35.6594159],[139.6849126,35.6594544],[139.6849379,35.6594821],[139.6849585,35.6595285],[139.6849633,35.6595641],[139.6849564,35.6596009],[139.6849281,35.6596489],[139.6848811,35.6596864],[139.6848379,35.6597043],[139.6847758,35.6597134],[139.6847169,35.6597063],[139.6846444,35.659672],[139.684609,35.6596355],[139.6845866,35.6595837],[139.6845897,35.6595225],[139.6846163,35.6594736],[139.6846517,35.6594415],[139.6847057,35.6594146]]}},{"type":"Feature","id":"way/503372441","properties":{"access":"no","highway":"path","id":"way/503372441"},"geometry":{"type":"LineString","coordinates":[[139.6884806,35.6595649],[139.6885201,35.6595072],[139.6886274,35.659299],[139.6887186,35.6591389],[139.6887414,35.659068],[139.6887669,35.6588795],[139.6887374,35.6586681],[139.6887039,35.658581],[139.6885657,35.6585712],[139.6885401,35.6585912],[139.6885295,35.6585995],[139.6885148,35.6586823],[139.6885389,35.658861],[139.6885644,35.6590299],[139.6884987,35.6591552],[139.6884558,35.6592533],[139.6884277,35.6593131]]}},{"type":"Feature","id":"way/503372442","properties":{"bridge":"yes","highway":"path","id":"way/503372442"},"geometry":{"type":"LineString","coordinates":[[139.6884806,35.6595649],[139.688327,35.6595144]]}},{"type":"Feature","id":"way/503372443","properties":{"highway":"path","id":"way/503372443"},"geometry":{"type":"LineString","coordinates":[[139.6882658,35.6598675],[139.6883545,35.659839],[139.6884169,35.6597556],[139.6884806,35.6595649]]}},{"type":"Feature","id":"way/503372445","properties":{"highway":"footway","surface":"paved","id":"way/503372445"},"geometry":{"type":"LineString","coordinates":[[139.6860727,35.6584577],[139.6860794,35.6584789],[139.6861478,35.6586936],[139.6861807,35.6587968]]}},{"type":"Feature","id":"way/503372814","properties":{"highway":"steps","id":"way/503372814"},"geometry":{"type":"LineString","coordinates":[[139.6816625,35.6608446],[139.6818003,35.6607976]]}},{"type":"Feature","id":"way/551389616","properties":{"highway":"footway","id":"way/551389616"},"geometry":{"type":"LineString","coordinates":[[139.6865975,35.6594719],[139.6866461,35.6595996],[139.6869499,35.6595216],[139.687185,35.659462]]}},{"type":"Feature","id":"way/551389617","properties":{"highway":"path","id":"way/551389617"},"geometry":{"type":"LineString","coordinates":[[139.6881908,35.6592096],[139.6883648,35.6591911],[139.688377,35.6591653],[139.6883771,35.6591167],[139.6883497,35.6590672],[139.6882589,35.6590686],[139.6882015,35.6591066],[139.6881606,35.6591391]]}},{"type":"Feature","id":"way/551389618","properties":{"highway":"footway","id":"way/551389618"},"geometry":{"type":"LineString","coordinates":[[139.6874404,35.6594082],[139.6875187,35.6593907],[139.6881988,35.6592383]]}},{"type":"Feature","id":"way/551389619","properties":{"highway":"service","id":"way/551389619"},"geometry":{"type":"LineString","coordinates":[[139.6881307,35.6583786],[139.6880888,35.6589737],[139.6880792,35.6590431]]}},{"type":"Feature","id":"way/695894896","properties":{"highway":"footway","id":"way/695894896"},"geometry":{"type":"LineString","coordinates":[[139.6879892,35.6599239],[139.6864702,35.660316]]}},{"type":"Feature","id":"way/695896979","properties":{"highway":"service","id":"way/695896979"},"geometry":{"type":"LineString","coordinates":[[139.6841143,35.6598439],[139.6843546,35.6597744]]}},{"type":"Feature","id":"way/695896982","properties":{"highway":"footway","id":"way/695896982"},"geometry":{"type":"LineString","coordinates":[[139.684305,35.6596415],[139.6842838,35.659577],[139.6842349,35.6594395],[139.6842174,35.6594062]]}},{"type":"Feature","id":"way/695896983","properties":{"highway":"service","id":"way/695896983"},"geometry":{"type":"LineString","coordinates":[[139.6841352,35.6599021],[139.6841143,35.6598439],[139.6840499,35.659684],[139.6840776,35.6596064],[139.6841989,35.6595733],[139.684305,35.6596415]]}},{"type":"Feature","id":"way/1327698247","properties":{"footway":"crossing","highway":"footway","id":"way/1327698247"},"geometry":{"type":"LineString","coordinates":[[139.6827303,35.6591205],[139.6828008,35.6591121],[139.6827951,35.659089],[139.6827796,35.6590702]]}},{"type":"Feature","id":"way/1348417072","properties":{"bicycle":"yes","footway":"sidewalk","highway":"footway","lit":"yes","oneway":"no","surface":"paved","id":"way/1348417072"},"geometry":{"type":"LineString","coordinates":[[139.6891763,35.6597305],[139.6888187,35.6601759],[139.6883228,35.6607934],[139.6880212,35.6611634],[139.687977,35.661207],[139.6879247,35.6612462],[139.6878308,35.6613301],[139.6877865,35.6613737],[139.6877678,35.6614064],[139.6877547,35.6614664],[139.6877316,35.6615077],[139.6876006,35.6616345],[139.6875036,35.6617459],[139.6873773,35.6619001]]}},{"type":"Feature","id":"way/1390046137","properties":{"highway":"footway","id":"way/1390046137"},"geometry":{"type":"LineString","coordinates":[[139.6868853,35.6599742],[139.6870543,35.6598046],[139.6875187,35.6593907]]}},{"type":"Feature","id":"way/1466169137","properties":{"highway":"footway","id":"way/1466169137"},"geometry":{"type":"LineString","coordinates":[[139.6868439,35.6611576],[139.6867612,35.6611278]]}},{"type":"Feature","id":"way/1466169138","properties":{"highway":"footway","id":"way/1466169138"},"geometry":{"type":"LineString","coordinates":[[139.6846895,35.6616986],[139.6847037,35.661763]]}},{"type":"Feature","id":"way/1466169139","properties":{"highway":"footway","id":"way/1466169139"},"geometry":{"type":"LineString","coordinates":[[139.6850539,35.6615639],[139.684718,35.6616445],[139.6846895,35.6616986]]}},{"type":"Feature","id":"way/1466175497","properties":{"highway":"service","layer":"-1","id":"way/1466175497"},"geometry":{"type":"LineString","coordinates":[[139.6844241,35.6605566],[139.6845515,35.660881],[139.6845843,35.6609645]]}},{"type":"Feature","id":"way/1466175498","properties":{"highway":"service","layer":"-1","id":"way/1466175498"},"geometry":{"type":"LineString","coordinates":[[139.6856299,35.6602708],[139.6857467,35.6605755],[139.686141,35.6604735]]}},{"type":"Feature","id":"way/1466175499","properties":{"highway":"service","id":"way/1466175499"},"geometry":{"type":"LineString","coordinates":[[139.6857467,35.6605755],[139.6852192,35.660699],[139.6852297,35.6607326],[139.6847398,35.6608572],[139.684838,35.6611122]]}},{"type":"Feature","id":"way/1466175500","properties":{"highway":"service","id":"way/1466175500"},"geometry":{"type":"LineString","coordinates":[[139.6847398,35.6608572],[139.6845515,35.660881]]}},{"type":"Feature","id":"way/1466175502","properties":{"highway":"service","id":"way/1466175502"},"geometry":{"type":"LineString","coordinates":[[139.6845507,35.6588253],[139.6846322,35.6590579],[139.6847074,35.6592723],[139.6847549,35.6594056]]}},{"type":"Feature","id":"way/1466177112","properties":{"highway":"service","id":"way/1466177112"},"geometry":{"type":"LineString","coordinates":[[139.6849585,35.6595285],[139.6852432,35.6594785]]}},{"type":"Feature","id":"way/1466177116","properties":{"highway":"service","id":"way/1466177116"},"geometry":{"type":"LineString","coordinates":[[139.6858854,35.6596596],[139.6858957,35.6596849],[139.6859113,35.6597084],[139.6859171,35.6597347],[139.6859126,35.6597611],[139.6858982,35.6597851],[139.6858754,35.6598042],[139.6858463,35.6598167],[139.685814,35.6598212],[139.6857815,35.6598173],[139.6857521,35.6598054],[139.6857287,35.6597867],[139.6857137,35.6597633],[139.6857083,35.6597373],[139.6856972,35.6597103]]}},{"type":"Feature","id":"way/1466374863","properties":{"highway":"service","surface":"paved","id":"way/1466374863"},"geometry":{"type":"LineString","coordinates":[[139.6844042,35.6599109],[139.6843757,35.6598344],[139.6843546,35.6597744],[139.6843255,35.6596963],[139.684305,35.6596415]]}}]}
