{"type":"FeatureCollection","features":[{"type":"Feature","id":"way/317015602","properties":{"amenity":"university","education":"university","emergency":"assembly_point","name":"東京大学 駒場Ⅰキャンパス","name:en":"The University of Tokyo, Komaba Ⅰ Campus","name:es":"Universidad de Tokio (Campus Komaba)","name:ja":"東京大学 駒場Ⅰキャンパス","wikidata":"Q7896466","wikimedia_commons":"Category:Komaba Campus, the University of Tokyo","wikipedia":"ja:東京大学駒場地区キャンパス","id":"way/317015602"},"geometry":{"type":"Polygon","coordinates":[[[139.6826519,35.6629808],[139.6823669,35.6628677],[139.6820983,35.6626148],[139.6819619,35.6622688],[139.6814734,35.6601411],[139.6825161,35.6597312],[139.6825951,35.6592558],[139.6827303,35.6591205],[139.6827806,35.6590702],[139.6844728,35.6587527],[139.6844981,35.6588212],[139.6853565,35.6586144],[139.6853038,35.6585132],[139.6860182,35.658216],[139.6861073,35.6584123],[139.6872347,35.6582023],[139.688002,35.6582831],[139.6887432,35.658478],[139.6889319,35.6588039],[139.6883994,35.6598351],[139.6882398,35.6599474],[139.6881825,35.6600592],[139.6887035,35.6603224],[139.6879752,35.6611585],[139.6871669,35.6615468],[139.6870336,35.6618449],[139.6868094,35.6619744],[139.6866996,35.6620067],[139.6857153,35.6622958],[139.6857983,35.6625083],[139.6840909,35.6630457],[139.6826519,35.6629808]]]}}]}
